id,ident,type,name,latitude_deg,longitude_deg,elevation_ft,continent,iso_country,iso_region,municipality,scheduled_service,gps_code,iata_code,local_code,home_link,wikipedia_link,keywords
7001,08OH,small_airport,Kenley Airport,41.29169846,-80.56369781,1230,NA,US,US-OH,Hartford,no,08OH,,08OH,,,
7002,08OK,small_airport,Parks Airport,34.93149948,-95.25830078,635,NA,US,US-OK,Wilburton,no,08OK,,08OK,,,
7003,08OR,small_airport,Saxon Sycan Airport,42.83929825,-121.1169968,4990,NA,US,US-OR,Silver Lake,no,08OR,,08OR,,,
7004,08PA,heliport,Pocono Raceway Heliport,41.0583992,-75.49960327,1812,NA,US,US-PA,Pocono Pines,no,08PA,,08PA,,,
7005,08PN,heliport,Thomson Heliport,40.04589844,-76.28079987,310,NA,US,US-PA,Lancaster,no,08PN,,08PN,,,
7006,08R,small_airport,Richmond Airport,41.48949814,-71.62059784,130,NA,US,US-RI,West Kingston,no,08R,,08R,,,
7007,08TA,heliport,Rancho Del Lago Heliport,29.95190048,-98.22450256,1208,NA,US,US-TX,Fischer,no,08TA,,08TA,,,
7008,08TE,small_airport,B. J. Mc Combs Sisterdale Airport,29.97599983,-98.74359894,1447,NA,US,US-TX,Comfort,no,08TE,,08TE,,,
7009,08TS,small_airport,Puesta Del Sol Airport,26.88780022,-98.50720215,420,NA,US,US-TX,La Gloria,no,08TS,,08TS,,,
7010,08TX,small_airport,Cross Wind Airport,32.85820007,-97.74749756,1040,NA,US,US-TX,Weatherford,no,08TX,,08TX,,,
7011,08U,small_airport,Stevens-Crosby Airport,41.51570129,-115.8600006,6397,NA,US,US-NV,North Fork,no,08U,,08U,,,
7012,08VA,small_airport,Springwood Airstrip,37.55400085,-79.74980164,1000,NA,US,US-VA,Buchanan,no,08VA,,08VA,,,
7013,08WA,heliport,Manchester Laboratory Heliport,47.57429886,-122.5479965,2,NA,US,US-WA,Manchester,no,08WA,,08WA,,,
7014,08WI,closed,Pierick Airport,43.04359818,-90.35510254,1225,NA,US,US-WI,Highland,no,08WI,,08WI,,,
7015,08XS,small_airport,Peterson Airport,29.10810089,-95.77749634,45,NA,US,US-TX,Old Ocean,no,08XS,,08XS,,,
45270,09AK,small_airport,West Beaver Airport,61.589361,-149.847333,228,NA,US,US-AK,Big Lake,no,09AK,,09AK,,,
7016,09AR,heliport,Magnolia Hospital Heliport,33.27320099,-93.23989868,310,NA,US,US-AR,Magnolia,no,09AR,,09AR,,,
7017,09AZ,small_airport,Stronghold Airport,31.9253006,-110.038002,4970,NA,US,US-AZ,St David,no,09AZ,,09AZ,,,
7018,09CA,heliport,Mee Memorial Hospital Heliport,36.20554,-121.132503,320,NA,US,US-CA,King City,no,09CA,,09CA,,,
7019,09CL,small_airport,Alta Sierra Airport,39.11380005,-121.0569992,2275,NA,US,US-CA,Grass Valley,no,09CL,,09CL,,,
45317,09CN,heliport,Tulare Motor Sports #2 Heliport,36.182556,-119.313572,272,NA,US,US-CA,Tulare,no,09CN,,09CN,,,
7020,09CO,small_airport,Cottonwood Field,38.05559921,-103.6529999,4180,NA,US,US-CO,Swink,no,09CO,,09CO,,,
7021,09FA,small_airport,Placid Lakes Airport,27.24559975,-81.4131012,130,NA,US,US-FL,Lake Placid,no,09FA,,09FA,,,
7022,09FD,small_airport,Cheryl-Lane Landings Airport,28.67110062,-82.08730316,71,NA,US,US-FL,Bushnell,no,09FD,,09FD,,,
7023,09FL,small_airport,Sunnybreeze Airport,27.05559921,-81.97059631,60,NA,US,US-FL,Arcadia,no,09FL,,09FL,,,
7024,09GA,small_airport,Sunbelt Strip,31.11129951,-83.68409729,230,NA,US,US-GA,Moultrie,no,09GA,,09GA,,,
7025,09I,seaplane_base,International Falls Seaplane Base,48.60580063,-93.3707962,1110,NA,US,US-MN,International Falls,no,09I,,09I,,,
7026,09IA,small_airport,Skydive Iowa Airport,41.74580002,-92.40930176,820,NA,US,US-IA,Brooklyn,no,09IA,,09IA,,,
7027,09ID,small_airport,Taylor Ranch Landing Area Airport,45.10390091,-114.8550034,3835,NA,US,US-ID,Moscow,no,09ID,,09ID,,,
7028,09II,small_airport,Gibbons Field,38.44729996,-86.44499969,880,NA,US,US-IN,Valeene,no,09II,,09II,,,
7029,09IL,heliport,Silver Cross Hospital Heliport,41.53639984,-88.05259705,610,NA,US,US-IL,Joliet,no,09IL,,09IL,,,
7030,09IN,small_airport,Gordon Airport,41.1208992,-85.42500305,850,NA,US,US-IN,Columbia City,no,09IN,,09IN,,,
7031,09IS,heliport,Swedish American Heliport,42.26499939,-89.07430267,874,NA,US,US-IL,Rockford,no,09IS,,09IS,,,
7032,09KS,small_airport,Coffman Airport,38.70700073,-95.13829803,970,NA,US,US-KS,Wellsville,no,09KS,,09KS,,,
7033,09KY,heliport,Baptist Hospital East Heliport,38.23899841,-85.63939667,531,NA,US,US-KY,Louisville,no,09KY,,09KY,,,
7034,09LA,heliport,Era Helicopters Fourchon Helibase Heliport,29.12330055,-90.2016983,2,NA,US,US-LA,Grand Isle,no,09LA,,09LA,,,
7035,09LL,small_airport,Pine Hill Airport,42.4681015,-88.74320221,1000,NA,US,US-IL,Capron,no,09LL,,09LL,,,
7036,09LS,heliport,West Feliciana Sheriff's Office Heliport,30.82439995,-91.38459778,181,NA,US,US-LA,St Francisville,no,09LS,,09LS,,,
7037,09MA,small_airport,Kallander Field,42.3042984,-71.50589752,403,NA,US,US-MA,Southborough,no,09MA,,09MA,,,
7038,09ME,small_airport,Perrotti Skyranch Airfield,43.34080124,-70.85469818,260,NA,US,US-ME,Berwick,no,09ME,,09ME,,,
7039,09MI,heliport,Michigan National Guard Headquarters Heliport,42.70809937,-84.56079865,842,NA,US,US-MI,Lansing,no,09MI,,09MI,,,
7040,09MN,small_airport,W Johnson Field,44.77999878,-95.66359711,1060,NA,US,US-MN,Hazel Run,no,09MN,,09MN,,,
7041,09MO,small_airport,Hogue Farm Airport,37.3783989,-93.36329651,1210,NA,US,US-MO,Willard,no,09MO,,09MO,,,
7042,09N,small_airport,Airhaven Airport,41.83259964,-73.87599945,450,NA,US,US-NY,Staatsburg,no,09N,,09N,,,
7043,09NC,small_airport,William Irving Lewis Airport,35.32929993,-79.02999878,310,NA,US,US-NC,Broadway,no,09NC,,09NC,,,
7044,09NE,small_airport,Summer Hill Farm Airport,41.33330154,-96.19360352,1250,NA,US,US-NE,Bennington,no,09NE,,09NE,,,
7045,09NJ,heliport,Stonebridge Farm Helistop,40.65370178,-74.68650055,100,NA,US,US-NJ,Somerville,no,09NJ,,09NJ,,,
7046,09NY,heliport,Spring Lake Fire Department Heliport,41.92890167,-74.04889679,254,NA,US,US-NY,Kingston,no,09NY,,09NY,,,
7047,09OK,small_airport,Ragtime Aerodrome,36.35449982,-95.86389923,700,NA,US,US-OK,Collinsville,no,09OK,,09OK,,,
7048,09OR,heliport,Mid-Columbia Medical Center Heliport,45.587235,-121.163827,487,NA,US,US-OR,The Dalles,no,09OR,,09OR,,http://en.wikipedia.org/wiki/Mid-Columbia_Medical_Center_Heliport,
7049,09PA,small_airport,Eagle Field,40.82699966,-77.98809814,1780,NA,US,US-PA,Port Matilda,no,09PA,,09PA,,,
7050,09PN,heliport,Hundley Residence Heliport,40.56200027,-75.1427002,480,NA,US,US-PA,Kintersville,no,09PN,,09PN,,,
7051,09S,small_airport,Sullivan Lake State Airport,48.84090042,-117.2839966,2614,NA,US,US-WA,Metaline Falls,no,09S,,09S,,,
14580,09TA,small_airport,Lazy G Bar Ranch Airport,33.28210068,-97.49700165,923,NA,US,US-TX,Decatur,no,09TA,,09TA,,,Formerly 82T
7052,09TE,small_airport,Running M Ranch Airport,32.26679993,-97.86699677,787,NA,US,US-TX,Glen Rose,no,09TE,,09TE,,,
7053,09TN,heliport,Univ of Tennessee Medical Center Heliport,35.94169998,-83.94400024,924,NA,US,US-TN,Knoxville,no,09TN,,09TN,,,
7054,09TS,small_airport,Pitcock Rosillos Mountain Ranch Airport,29.48240089,-103.1650009,3100,NA,US,US-TX,Marathon,no,09TS,,09TS,,,
7055,09TX,small_airport,Smokey Mtn Ranch Airport,30.7390995,-102.0240021,2522,NA,US,US-TX,Sheffield,no,09TX,,09TX,,,
7056,09VA,small_airport,Alum Ridge STOLport,36.97650146,-80.49389648,2375,NA,US,US-VA,Floyd,no,09VA,,09VA,,,
7057,09VG,heliport,Augusta Medical Center Heliport,38.09080124,-78.98500061,1390,NA,US,US-VA,Fishersville,no,09VG,,09VG,,,
7058,09W,heliport,South Capitol Street Heliport,38.86869812,-77.00749969,10,NA,US,US-DC,Washington,no,09W,,09W,,,
7059,09WA,heliport,Holy Family Hospital Heliport,47.71039963,-117.4069977,2081,NA,US,US-WA,Spokane,no,09WA,,09WA,,,
7060,09WI,small_airport,Parkway Farm Strip,44.00360107,-91.30760193,705,NA,US,US-WI,Holmen,no,09WI,,09WI,,,
7061,09XS,heliport,Baptist Medical Center Heliport,29.43300056,-98.49220276,710,NA,US,US-TX,San Antonio,no,09XS,,09XS,,,
7062,09Y,seaplane_base,Wipline Seaplane Base,44.8166008,-93.01550293,687,NA,US,US-MN,Inver Grove Hgts,no,09Y,,09Y,,,
7063,0AK,small_airport,Pilot Station Airport,61.934601,-162.899994,305,NA,US,US-AK,Pilot Station,yes,,PQS,0AK,,https://en.wikipedia.org/wiki/Pilot_Station_Airport,
7064,0AK0,small_airport,Scotts Airport,64.39250183,-146.8619995,800,NA,US,US-AK,North Pole,no,0AK0,,0AK0,,,
7065,0AK1,small_airport,Anderson Lake Airport,61.6169014,-149.3220062,463,NA,US,US-AK,Wasilla,no,0AK1,,0AK1,,,
45273,0AK2,small_airport,Yentna Bend Strip,61.725556,-150.678611,81,NA,US,US-AK,Willow,no,0AK2,,0AK2,,,
7066,0AK3,small_airport,Parker Lake Airport,62.03590012,-150.4940033,250,NA,US,US-AK,Montana Creek,no,0AK3,,0AK3,,,
7067,0AK5,small_airport,Young Creek Airport,61.35649872,-142.7330017,1580,NA,US,US-AK,May Creek,no,0AK5,,0AK5,,,
7068,0AK6,small_airport,Victory Airport,61.80339813,-147.9440002,1800,NA,US,US-AK,Victory Bible Camp,no,0AK6,,0AK6,,,
7069,0AK7,small_airport,Bradley Lake Hydroelectri Project Airstrip,59.77610016,-150.9589996,18,NA,US,US-AK,Homer,no,0AK7,,0AK7,,,
7070,0AK8,heliport,Pollux Heliport,64.89579773,-147.496994,515,NA,US,US-AK,North Pole,no,0AK8,,0AK8,,,
7071,0AK9,small_airport,Falcon Lake Strip,61.33259964,-150.0590057,110,NA,US,US-AK,Point Mackenzie,no,0AK9,,0AK9,,,
7072,0AL0,heliport,Huntsville Field,34.68840027,-86.58889771,619,NA,US,US-AL,Huntsville,no,0AL0,,0AL0,,,
7073,0AL1,small_airport,Resort Airport,30.44389915,-87.6568985,97,NA,US,US-AL,Foley,no,0AL1,,0AL1,,,
7074,0AL2,heliport,Clay County Hospital Heliport,33.27500153,-85.83329773,1040,NA,US,US-AL,Ashland,no,0AL2,,0AL2,,,
7075,0AL3,heliport,Hospital Pad Heliport,31.43059921,-86.94029999,295,NA,US,US-AL,Evergreen,no,0AL3,,0AL3,,,
7076,0AL4,heliport,B.M.C. - De Kalb Heliport,34.44079971,-85.75640106,870,NA,US,US-AL,Fort Payne,no,0AL4,,0AL4,,,
7077,0AL5,small_airport,Flomaton Airport,31.03219986,-87.25279999,247,NA,US,US-AL,Flomaton,no,0AL5,,0AL5,,,
7078,0AL6,heliport,D.W. Mcmillian Memorial Hospital Heliport,31.12719917,-87.07330322,155,NA,US,US-AL,Brewton,no,0AL6,,0AL6,,,
7079,0AL7,heliport,Gadsden Regl Medical Center Heliport,34.00830078,-85.96530151,621,NA,US,US-AL,Gadsden,no,0AL7,,0AL7,,,
7080,0AL8,heliport,Brookwood Medical Center Heliport,33.46390152,-86.77310181,763,NA,US,US-AL,Birmingham,no,0AL8,,0AL8,,,
7081,0AL9,small_airport,Wilson Creek Airport,34.84999847,-87.63249969,590,NA,US,US-AL,Florence,no,0AL9,,0AL9,,,
7082,0AR0,heliport,Smh Heliport,36.18149948,-94.13710022,1352,NA,US,US-AR,Springdale,no,0AR0,,0AR0,,,
7083,0AR1,small_airport,Hooterville South Airport,35.09469986,-93.20200348,370,NA,US,US-AR,Centerville,no,0AR1,,0AR1,,,
7084,0AR2,small_airport,Mission Field-Marotti Memorial Airport,35.26679993,-90.35009766,217,NA,US,US-AR,Crawfordsville,no,0AR2,,0AR2,,,
7085,0AR3,small_airport,Taylor's Air Strip,35.89899826,-93.26100159,2160,NA,US,US-AR,Deer,no,0AR3,,0AR3,,,
7086,0AR4,heliport,Gravette Medical Center Hospital Heliport,36.40790176,-94.45690155,1251,NA,US,US-AR,Gravette,no,0AR4,,0AR4,,,
7087,0AR5,heliport,Rgnl Medical Center Heliport,35.83620071,-90.70179749,382,NA,US,US-AR,Jonesboro,no,0AR5,,0AR5,,,
7088,0AR6,heliport,Ami National Park Medical Center Heliport,34.48149872,-93.03099823,547,NA,US,US-AR,Hot Springs,no,0AR6,,0AR6,,,
7089,0AR7,small_airport,Yancopin Airport,33.95009995,-91.18119812,150,NA,US,US-AR,Watson,no,0AR7,,0AR7,,,
7090,0AR8,heliport,Howard Memorial Hospital Heliport,33.95009995,-93.85209656,549,NA,US,US-AR,Nashville,no,0AR8,,0AR8,,,
7091,0AR9,heliport,Eureka Springs Hospital Heliport,36.40010071,-93.74349976,1540,NA,US,US-AR,Eureka Springs,no,0AR9,,0AR9,,,
7092,0AZ0,heliport,Arizona Heart Hospital Heliport,33.48130035,-112.0400009,1161,NA,US,US-AZ,Phoenix,no,0AZ0,,0AZ0,,,
7093,0AZ1,small_airport,Taylor Field,32.30089951,-111.3239975,2130,NA,US,US-AZ,Marana,no,0AZ1,,0AZ1,,,
7094,0AZ2,small_airport,Western Sky Airport,33.77809906,-113.6419983,1930,NA,US,US-AZ,Salome,no,0AZ2,,0AZ2,,,
7095,0AZ4,small_airport,Flying Bucket Ranch Airport,32.9822998,-112.2870026,1505,NA,US,US-AZ,Mobile,no,0AZ4,,0AZ4,,,
7096,0AZ5,small_airport,Castle Well Airport,33.86589813,-112.6029968,2080,NA,US,US-AZ,Morristown,no,0AZ5,,0AZ5,,,
7097,0AZ6,heliport,St Joseph's Hospital Heliport,33.4817009,-112.0770035,1213,NA,US,US-AZ,Phoenix,no,0AZ6,,0AZ6,,,
7098,0AZ7,heliport,Sunstate Heliport,33.44369888,-111.9629974,1180,NA,US,US-AZ,Phoenix,no,0AZ7,,0AZ7,,,
7099,0B2,small_airport,Brewer Airport,44.76369858,-68.76779938,124,NA,US,US-ME,Brewer,no,0B2,,0B2,,,
7100,0B7,small_airport,Warren-Sugarbush Airport,44.11669922,-72.82710266,1470,NA,US,US-VT,Warren,no,0B7,,0B7,,http://en.wikipedia.org/wiki/Warren-Sugarbush_Airport,
7101,0C1,small_airport,Triple R Airport,39.4878006,-94.78050232,1000,NA,US,US-MO,Dearborn,no,0C1,,0C1,,,
7102,0C2,small_airport,Hinckley Airport,41.77090073,-88.70339966,760,NA,US,US-IL,Hinckley,no,0C2,,0C2,,,
7103,0C5,small_airport,Canadian Lakes Airport,43.57640076,-85.2806015,960,NA,US,US-MI,Mecosta,no,0C5,,0C5,,,
7104,0C7,small_airport,Grandpas' Farm Mendota Airport,41.52199936,-89.13259888,727,NA,US,US-IL,Mendota,no,0C7,,0C7,,,
7105,0C8,small_airport,Cushing Field Ltd Airport,41.51950073,-88.60559845,640,NA,US,US-IL,Newark,no,0C8,,0C8,,,
7106,0C9,heliport,Coach & Paddock Heliport,40.63819885,-74.97570038,320,NA,US,US-NJ,Clinton,no,0C9,,0C9,,,
7107,0CA0,heliport,Drew Medical Center Heliport,33.9233017,-118.2419968,180,NA,US,US-CA,Los Angeles,no,0CA0,,0CA0,,,
7108,0CA1,closed,Northside Airpark,34.98830032,-120.4580002,190,NA,US,US-CA,Santa Maria,no,,,,,,0CA1
7109,0CA2,heliport,Va Greater Los Angeles Health Care Center Heliport,34.04919815,-118.4560013,294,NA,US,US-CA,West Los Angeles,no,0CA2,,0CA2,,,
7110,0CA3,small_airport,Crawford Airport,34.58750153,-120.0130005,570,NA,US,US-CA,Santa Ynez,no,0CA3,,0CA3,,,
7111,0CA4,small_airport,Shepherd Ranch Airport,34.62220001,-120.0650024,660,NA,US,US-CA,Santa Ynez,no,0CA4,,0CA4,,,
7112,0CA5,small_airport,Hoffman Private Airport,33.14310074,-116.7450027,3100,NA,US,US-CA,Santa Ysabel,no,0CA5,,0CA5,,,
7113,0CA6,small_airport,Emory Ranch Airport,32.7494444,-116.0161111,480,NA,US,US-CA,Ocotillo,no,0CA6,,0CA6,,,
7114,0CA7,heliport,Boeing Seal Beach (Rooftop) Heliport,33.75699997,-118.0879974,158,NA,US,US-CA,Seal Beach,no,0CA7,,0CA7,,,
7115,0CA8,small_airport,Ward Ranch Airport,33.42779922,-116.8430023,2500,NA,US,US-CA,Aguanga,no,0CA8,,0CA8,,,
7116,0CA9,small_airport,Blech Ranch Airport,35.59500122,-120.3389969,1140,NA,US,US-CA,Shandon,no,0CA9,,0CA9,,,
7117,0CD0,heliport,Delta County Memorial Hospital Heliport,38.74079895,-108.052002,5000,NA,US,US-CO,Delta,no,0CD0,,0CD0,,,
7118,0CD1,heliport,Colorado Plains Medical Center Heliport,40.2610917,-103.7963389,4356,NA,US,US-CO,Fort Morgan,no,0CD1,,0CD1,,,
7119,0CD2,small_airport,Foxx Valley Airport,38.65250015,-104.2340012,5800,NA,US,US-CO,Yoder,no,0CD2,,0CD2,,,
7120,0CD3,heliport,Branch's Heliport,40.34799957,-104.5279999,4635,NA,US,US-CO,Kersey,no,0CD3,,0CD3,,,
7121,0CD4,heliport,Kauffman Heliport,40.14630127,-104.887001,5120,NA,US,US-CO,Denver,no,0CD4,,0CD4,,,
7122,0CD5,small_airport,Pinon Canyon Airport,37.4905014,-104.1439972,5686,NA,US,US-CO,Trinidad,no,0CD5,,0CD5,,,
7123,0CD6,heliport,Exempla Good Samaritan Heliport,39.97169876,-105.0849991,5204,NA,US,US-CO,Lafayette,no,0CD6,,0CD6,,,
7124,0CD7,small_airport,Fox Hole Airport,40.00469971,-105.0719986,5135,NA,US,US-CO,Lafayette,no,0CD7,,0CD7,,,
7125,0CD8,heliport,Prowers Medical Center Heliport,38.07109833,-102.6090012,3575,NA,US,US-CO,Lamar,no,0CD8,,0CD8,,,
7126,0CD9,heliport,Swedish S.W. Medical Heliport,39.60309982,-105.0910034,5563,NA,US,US-CO,Littleton,no,0CD9,,0CD9,,,
7127,0CL0,small_airport,Yosemite Hidden Lake Ranch Airport,37.11800003,-119.913002,500,NA,US,US-CA,Raymond,no,0CL0,,0CL0,,,
7128,0CL1,small_airport,Krey Field Airport,34.56940079,-117.5559998,3042,NA,US,US-CA,Adelanto,no,0CL1,,0CL1,,,
7129,0CL2,heliport,Parking Lot Heliport,32.59389877,-117.0849991,,NA,US,US-CA,Chula Vista,no,0CL2,,0CL2,,,
7130,0CL3,small_airport,John Nichol's Field Airport,32.6330986,-116.8929977,490,NA,US,US-CA,Chula Vista,no,0CL3,,0CL3,,,
7131,0CL4,heliport,Glen Fed Heliport,34.15719986,-118.2549973,770,NA,US,US-CA,Glendale,no,0CL4,,0CL4,,,
7132,0CL5,heliport,The Atrium Heliport,33.67060089,-117.8580017,46,NA,US,US-CA,Irvine,no,0CL5,,0CL5,,,
7133,0CL6,small_airport,Bohunk's Airpark,34.69469833,-118.2829971,2410,NA,US,US-CA,Lancaster,no,0CL6,,0CL6,,,
7134,0CL7,heliport,Good Samaritan Hospital Heliport,34.054901,-118.264967,473,NA,US,US-CA,Los Angeles,no,0CL7,,0CL7,,,
7135,0CL8,small_airport,Tera Ultralightport,35.59130096,-117.6340027,2510,NA,US,US-CA,Ridgecrest,no,0CL8,,0CL8,,,
7136,0CL9,heliport,Sce San Jacinto Valley Service Center Heliport,33.74110031,-117.151001,1482,NA,US,US-CA,Romoland,no,0CL9,,0CL9,,,
7137,0CO0,heliport,Longmont United Hospital Heliport,40.17890167,-105.1259995,5047,NA,US,US-CO,Longmont,no,0CO0,,0CO0,,,
7138,0CO1,small_airport,Dave's Airport,40.03329849,-105.1240005,5170,NA,US,US-CO,Louisville,no,0CO1,,0CO1,,,
7139,0CO2,small_airport,Buckhorn Ranch Airport,38.85189819,-106.93282,8980,NA,US,US-CO,Crested Butte,no,0CO2,CSE,0CO2,,,
7140,0CO3,small_airport,Greggs Nr 1 Airport,39.88940048,-104.5449982,5373,NA,US,US-CO,Bennett,no,0CO3,,0CO3,,,
7141,0CO4,heliport,Geo-Seis Helicopters Heliport,40.58990097,-105.0459976,4935,NA,US,US-CO,Fort Collins,no,0CO4,,0CO4,,,
7142,0CO5,small_airport,Chenoweth Airport,39.83330154,-103.5899963,4697,NA,US,US-CO,Last Chance,no,0CO5,,0CO5,,,
7143,0CO6,small_airport,Flying M & M Ranch Airport,38.2193985,-108.2129974,8000,NA,US,US-CO,Norwood,no,0CO6,,0CO6,,,
7144,0CO7,heliport,Century Helicopters Heliport,40.58549881,-105.0400009,4935,NA,US,US-CO,Fort Collins,no,0CO7,,0CO7,,,
7145,0CO8,small_airport,Cartwheel Airport,40.20830154,-105.0130005,5010,NA,US,US-CO,Mead,no,0CO8,,0CO8,,,
7146,0CO9,small_airport,Van Treese Airport,37.65829849,-106.0339966,7613,NA,US,US-CO,Monte Vista,no,0CO9,,0CO9,,,
7147,0CT0,heliport,Sharon Hospital Heliport,41.88119888,-73.48100281,640,NA,US,US-CT,Sharon,no,0CT0,,0CT0,,,
7148,0CT1,heliport,Bristol-Myers Squibb Company Heliport,41.48479843,-72.7562027,350,NA,US,US-CT,Wallingford,no,0CT1,,0CT1,,,
7149,0CT2,heliport,Windham Hospital Heliport,41.71699905,-72.22589874,330,NA,US,US-CT,Willimantic,no,0CT2,,0CT2,,,
7150,0CT3,heliport,N B G H Heliport,41.66159821,-72.78790283,431,NA,US,US-CT,New Britain,no,0CT3,,0CT3,,,
7151,0CT4,heliport,Burke Heliport,41.50619888,-72.93979645,400,NA,US,US-CT,Prospect,no,0CT4,,0CT4,,,
7152,0CT5,heliport,St Francis Hospital Heliport,41.7745018,-72.6989975,184,NA,US,US-CT,Hartford,no,0CT5,,0CT5,,,
7153,0CT6,heliport,Middletown Heliport,41.59680176,-72.70449829,113,NA,US,US-CT,Middletown,no,0CT6,,0CT6,,,
7154,0CT7,heliport,Bridgeport Hospital Heliport,41.18840027,-73.16619873,80,NA,US,US-CT,Bridgeport,no,0CT7,,0CT7,,,
7155,0CT8,heliport,Danbury Hospital Heliport,41.4056015,-73.44470215,510,NA,US,US-CT,Danbury,no,0CT8,,0CT8,,,
7156,0CT9,heliport,Hartford Hospital Heliport,41.75450134,-72.67870331,211,NA,US,US-CT,Hartford,no,0CT9,,0CT9,,,
7157,0D6,small_airport,Wilber Municipal Airport,40.47499847,-96.9878006,1400,NA,US,US-NE,Wilber,no,0D6,,0D6,,,
7158,0D7,small_airport,Ada Airport,40.79059982,-83.82910156,949,NA,US,US-OH,Ada,no,0D7,,0D7,,,
315634,0D9,closed,Air Park North,44.958,-84.9587,1170,NA,US,US-MI,Alba,no,0D9,,0D9,,,
7159,0.00E+00,small_airport,Corydon Airport,40.75450134,-93.24130249,1020,NA,US,US-IA,Corydon,no,0.00E+00,,0.00E+00,,,
7160,0FA0,heliport,Doral Resort & Country Club Heliport,25.81290054,-80.33889771,6,NA,US,US-FL,Miami,no,0FA0,,0FA0,,,
7161,0FA1,small_airport,Frierson Grove Airport,27.30389977,-81.88040161,65,NA,US,US-FL,Arcadia,no,0FA1,,0FA1,,,
45349,0FA2,heliport,Doctors Memorial Hospital #2 Heliport,30.119753,-83.592732,57,NA,US,US-FL,Perry,no,0FA2,,0FA2,,,
7162,0FD0,small_airport,Big 'G' Airport,29.26749992,-81.23010254,40,NA,US,US-FL,Ormond Beach,no,0FD0,,0FD0,,,
7163,0FD1,heliport,Panhandle Helicopter Llc Heliport,30.21409988,-85.87220001,20,NA,US,US-FL,Panama City Beach,no,0FD1,,0FD1,,,
7164,0FD2,heliport,Dolphin Stadium Heliport,25.95999264,-80.2370026,8,NA,US,US-FL,Miami,no,0FD2,,0FD2,,,
7165,0FD3,small_airport,Dugger Field,30.49640083,-86.09380341,70,NA,US,US-FL,Freeport,no,0FD3,,0FD3,,,
7166,0FD4,heliport,Cloverleaf Farms Ii Inc. Heliport,29.3614006,-82.20819855,100,NA,US,US-FL,Reddick,no,0FD4,,0FD4,,,
7167,0FD5,small_airport,Breezy Knoll Airport,30.82019997,-86.3443985,235,NA,US,US-FL,Defuniak Springs,no,0FD5,,0FD5,,,
7168,0FD6,seaplane_base,Fulton Seaplane Base,27.90749931,-80.48639679,,NA,US,US-FL,Sebastian,no,0FD6,,0FD6,,,
7169,0FD9,small_airport,Joy Farms Airport,30.65209961,-86.10939789,290,NA,US,US-FL,Defuniak Springs,no,0FD9,,0FD9,,,
7170,0FL0,small_airport,Harper's Fly-In Ranch Airport,26.73060036,-81.16390228,30,NA,US,US-FL,Clewiston,no,0FL0,,0FL0,,,
7171,0FL1,small_airport,Thompson Airfield,29.98329926,-82.83560181,110,NA,US,US-FL,Branford,no,0FL1,,0FL1,,,
7172,0FL2,seaplane_base,Alligator Drink Seaplane Base,28.78779984,-81.16419983,19,NA,US,US-FL,Geneva,no,0FL2,,0FL2,,,
7173,0FL3,heliport,Old Town Ems Heliport,29.60280037,-82.98169708,25,NA,US,US-FL,Old Town,no,0FL3,,0FL3,,,
7174,0FL4,heliport,Jackson Heliport,30.70499992,-85.37830353,110,NA,US,US-FL,Alford,no,0FL4,,0FL4,,,
7175,0FL5,seaplane_base,Lake Conway South Seaplane Base,28.45859909,-81.34970093,80,NA,US,US-FL,Belle Isle,no,0FL5,,0FL5,,,
7176,0FL6,small_airport,Stanchester Airport,27.80590057,-82.14009857,94,NA,US,US-FL,Lithia,no,0FL6,,0FL6,,,
7177,0FL7,heliport,Wcpx Tv-6 Heliport,28.61030006,-81.41940308,114,NA,US,US-FL,Orlando,no,0FL7,,0FL7,,,
7178,0FL8,seaplane_base,Gary Gale Seaplane Base,30.19389915,-81.68190002,,NA,US,US-FL,Jacksonville,no,0FL8,,0FL8,,,
7179,0FL9,small_airport,Mc Daniel Ranch Inc. Airport,26.39389992,-81.02310181,18,NA,US,US-FL,Clewiston,no,0FL9,,0FL9,,,
7180,0G0,small_airport,North Buffalo Suburban Airport,43.10319901,-78.70330048,588,NA,US,US-NY,Lockport,no,0G0,,0G0,,,
7181,0G5,seaplane_base,Grand Marais/Cook County Seaplane Base,47.8263,-90.3835,1635,NA,US,US-MN,Grand Marais,no,0G5,,0G5,http://www.boreal.org/airport/,http://en.wikipedia.org/wiki/Grand_Marais/Cook_County_Seaplane_Base,Devil Track Resort
7182,0GA0,small_airport,Halls Flying Ranch Airport,33.35620117,-84.36710358,800,NA,US,US-GA,Hampton,no,0GA0,,0GA0,,,
7183,0GA1,small_airport,Mustang Field,34.47790146,-82.89710236,693,NA,US,US-GA,Hartwell,no,0GA1,,0GA1,,,
7184,0GA2,small_airport,"Airnautique, Inc. Airport",34.37789917,-82.9457016,720,NA,US,US-GA,Hartwell,no,0GA2,,0GA2,,,
7185,0GA3,small_airport,Ayresouth Airport,33.77009964,-85.06079865,1287,NA,US,US-GA,Temple,no,0GA3,,0GA3,,,
7186,0GA4,small_airport,Paradise Falls Airport,33.81290054,-83.50569916,736,NA,US,US-GA,High Shoals,no,0GA4,,0GA4,,,
7187,0GA5,heliport,Big Canoe Heliport,34.45479965,-84.28910065,1475,NA,US,US-GA,Jasper,no,0GA5,,0GA5,,,
7188,0GA6,small_airport,Sunset Strip,33.73339844,-83.81880188,780,NA,US,US-GA,Jersey,no,0GA6,,0GA6,,,
7189,0GA7,small_airport,Hickory Level Airfield,33.6833992,-84.99990082,1080,NA,US,US-GA,Temple,no,0GA7,,0GA7,,,
7190,0GA8,small_airport,Paso Fino Farm Airport,30.88710022,-83.41600037,200,NA,US,US-GA,Valdosta,no,0GA8,,0GA8,,,
7191,0GA9,small_airport,Roberta Industrial Park Airport,32.71390152,-84.02749634,505,NA,US,US-GA,Roberta,no,0GA9,,0GA9,,,
7192,0GE0,small_airport,Pinewood Airport,33.78210068,-84.80079651,1085,NA,US,US-GA,Douglasville,no,0GE0,,0GE0,,,
7193,0GE1,small_airport,Crystal Lake Airpark,31.66550064,-83.44709778,327,NA,US,US-GA,Irwinville,no,0GE1,,0GE1,,,
7194,0GE3,small_airport,Lookout Mountain Airport,34.90470123,-85.45970154,563,NA,US,US-GA,Trenton,no,0GE3,,0GE3,,,
7195,0GE4,small_airport,Pecan Patch Airstrip,33.33140182,-84.26670074,860,NA,US,US-GA,Sunnyside,no,0GE4,,0GE4,,,
7196,0GE5,small_airport,Mountain Airpark,34.5617981,-83.71350098,1438,NA,US,US-GA,Cleveland,no,0GE5,,0GE5,,,
7197,0GE7,small_airport,Carpenter Airport,33.52030182,-82.37249756,450,NA,US,US-GA,Appling,no,0GE7,,0GE7,,,
7198,0GE9,small_airport,Pegasus Ranch Airport,32.69390106,-81.79859924,230,NA,US,US-GA,Rocky Ford,no,0GE9,,0GE9,,,
7199,0H7,small_airport,Kahoka Municipal Airport,40.42160034,-91.70629883,700,NA,US,US-MO,Kahoka,no,0H7,,0H7,,,
7200,0I2,small_airport,Brazil Clay County Airport,39.47669983,-87.09970093,645,NA,US,US-IN,Brazil,no,0I2,,0I2,,,
7201,0IA0,heliport,Knoxville Area Community Hospital Heliport,41.31689835,-93.09600067,927,NA,US,US-IA,Knoxville,no,0IA0,,0IA0,,,
7202,0IA1,heliport,St Anthony Regional Hospital Heliport,42.05830002,-94.86830139,1300,NA,US,US-IA,Carroll,no,0IA1,,0IA1,,,
7203,0IA2,heliport,Audubon County Memorial Hospital Heliport,41.71549988,-94.93859863,1320,NA,US,US-IA,Audubon,no,0IA2,,0IA2,,,
7204,0IA3,small_airport,Hawkeye Airport,42.43470001,-92.32800293,883,NA,US,US-IA,Waterloo,no,0IA3,,0IA3,,,
7205,0IA4,small_airport,Sharar Field,41.03340149,-91.05010223,700,NA,US,US-IA,Mediapolis,no,0IA4,,0IA4,,,
7206,0IA5,small_airport,Moore Private Airport,40.87220001,-93.26270294,1060,NA,US,US-IA,Millerton,no,0IA5,,0IA5,,,
7207,0IA6,small_airport,Rinehart Airport,41.65969849,-92.28990173,920,NA,US,US-IA,Victor,no,0IA6,,0IA6,,,
7208,0IA7,heliport,Cromwell Heliport,41.03889847,-94.46690369,1300,NA,US,US-IA,Cromwell,no,0IA7,,0IA7,,,
7209,0IA8,small_airport,Hannen Airport,42.22800064,-91.75099945,925,NA,US,US-IA,Center Point,no,0IA8,,0IA8,,,
7210,0IA9,heliport,Army Reserve Heliport,40.83340073,-91.30010223,725,NA,US,US-IA,Middleton,no,0IA9,,0IA9,,,
7211,0ID0,small_airport,South Fork Ranch Airport,43.60639954,-115.1070023,4861,NA,US,US-ID,Featherville,no,0ID0,,0ID0,,,
7212,0ID1,small_airport,Ziggy's Airport,42.64120102,-114.6050034,3225,NA,US,US-ID,Filer,no,0ID1,,0ID1,,,
7213,0ID2,small_airport,Flying Joseph Ranch Airport,44.44290161,-113.7730026,5600,NA,US,US-ID,May,no,0ID2,,0ID2,,,
7214,0ID3,small_airport,Coyote Run Airport,43.07580185,-115.6729965,3150,NA,US,US-ID,Mountain Home,no,0ID3,,0ID3,,,
7215,0ID4,small_airport,Black Butte Ranch Airport,43.04769897,-114.4700012,4020,NA,US,US-ID,Shoshone,no,0ID4,,0ID4,,,
7216,0ID5,small_airport,Ez Lope Ranch Airport,43.05310059,-116.461998,3130,NA,US,US-ID,Oreana,no,0ID5,,0ID5,,,
7217,0ID6,heliport,Steele Memorial Heliport,45.1739006,-113.8909988,4004,NA,US,US-ID,Salmon,no,0ID6,,0ID6,,,
45394,0ID7,small_airport,Z X Ranch Airport,43.230308,-116.763192,3820,NA,US,US-ID,Murphy,no,0ID7,,0ID7,,,
45387,0ID8,small_airport,Pinnacle Airport,45.775197,-116.178475,3800,NA,US,US-ID,Grangeville,no,0ID8,,0ID8,,,
7218,0II0,small_airport,Chuck's Airport,40.25999832,-85.25330353,955,NA,US,US-IN,Albany,no,0II0,,0II0,,,
7219,0II1,small_airport,Unsicker Airport,40.42810059,-86.15329742,816,NA,US,US-IN,Bremen,no,0II1,,0II1,,,
7220,0II2,small_airport,Creighton Airport,41.45729828,-86.12439728,820,NA,US,US-IN,Bremen,no,0II2,,0II2,,,
7221,0II3,small_airport,Miller Strip,40.62779999,-86.03780365,810,NA,US,US-IN,Bunker Hill,no,0II3,,0II3,,,
7222,0II5,small_airport,Marshall Field,40.65950012,-86.85720062,705,NA,US,US-IN,Chalmers,no,0II5,,0II5,,,
7223,0II6,small_airport,Kropf Airport,41.64310074,-85.82969666,810,NA,US,US-IN,Goshen,no,0II6,,0II6,,,
7224,0II7,small_airport,Frost Field,39.79560089,-85.78610229,900,NA,US,US-IN,Greenfield,no,0II7,,0II7,,,
7225,0II8,small_airport,Sutton's Field,41.32479858,-87.47589874,740,NA,US,US-IN,Lowell,no,0II8,,0II8,,,
7226,0II9,small_airport,Winters Airport,39.53419876,-86.57720184,755,NA,US,US-IN,Hall,no,0II9,,0II9,,,
7227,0IL0,heliport,Hamilton Memorial Hospital Heliport,38.08670044,-88.53890228,440,NA,US,US-IL,Mc Leansboro,no,0IL0,,0IL0,,,
7228,0IL1,heliport,Loyola University Medical Center Heliport,41.86090088,-87.83640289,623,NA,US,US-IL,Broadview,no,0IL1,,0IL1,,,
45950,0IL2,small_airport,Griffin Airport,38.803056,-88.997778,541,NA,US,US-IL,Alma,no,0IL2,,0IL2,,,
7229,0IL3,small_airport,Flying B Ranch Airport,40.1570015,-87.67449951,696,NA,US,US-IL,Danville,no,0IL3,,0IL3,,,
7230,0IL4,heliport,Good Samaritan Hospital Heliport,41.81890106,-88.00779724,772,NA,US,US-IL,Downers Grove,no,0IL4,,0IL4,,,
7231,0IL6,heliport,Kishwaukee Community Hospital Heliport,41.96310043,-88.71730042,852,NA,US,US-IL,De Kalb,no,0IL6,,0IL6,,,
7232,0IL8,small_airport,Walter Airport,41.87250137,-88.72370148,890,NA,US,US-IL,De Kalb,no,0IL8,,0IL8,,,
7233,0IL9,small_airport,Jack W. Watson Airport,41.85480118,-88.78730011,880,NA,US,US-IL,De Kalb,no,0IL9,,0IL9,,,
7234,0IN1,small_airport,Snider Field,38.5,-87.59590149,400,NA,US,US-IN,Decker,no,0IN1,,0IN1,,,
7235,0IN2,small_airport,The Lazy K Airport,40.82780075,-85.08609772,835,NA,US,US-IN,Tocsin,no,0IN2,,0IN2,,,
7236,0IN3,small_airport,Graves Landing Strip,41.11669922,-86.66670227,704,NA,US,US-IN,Winamac,no,0IN3,,0IN3,,,
7237,0IN4,small_airport,Air Park Field,41.12779999,-84.94719696,750,NA,US,US-IN,Woodburn,no,0IN4,,0IN4,,,
7238,0IN5,small_airport,Byrne Field,38.32899857,-86.03359985,800,NA,US,US-IN,Byrneville,no,0IN5,,0IN5,,,
7239,0IN7,heliport,Roto-Whirl/Holiday Heliport,39.92250061,-86.22609711,875,NA,US,US-IN,Indianapolis,no,0IN7,,0IN7,,,
7240,0IN8,heliport,Roto-Whirl/Vantage Heliport,39.83729935,-86.11859894,726,NA,US,US-IN,Indianapolis,no,0IN8,,0IN8,,,
7241,0IN9,small_airport,Parrish Airport,37.99309921,-87.95140076,390,NA,US,US-IN,Mount Vernon,no,0IN9,,0IN9,,,
7242,0IS0,heliport,Trinity Medical Center West Heliport,41.48109818,-90.5714035,664,NA,US,US-IL,Rock Island,no,0IS0,,0IS0,,,
7243,0IS2,heliport,Evanston/Glenbrook Heliport,42.0931015,-87.8526001,678,NA,US,US-IL,Glenview,no,0IS2,,0IS2,,,
7244,0IS3,small_airport,Cady Aerial RLA Restricted Landing Area,41.66080093,-89.69360352,630,NA,US,US-IL,Deer Grove,no,0IS3,,0IS3,,,
7245,0IS4,small_airport,Dawson Farms Airport,39.76250076,-88.67150116,670,NA,US,US-IL,Lovington,no,0IS4,,0IS4,,,
7246,0IS6,heliport,Dongola Heliport,37.36560059,-89.16359711,383,NA,US,US-IL,Dongola,no,0IS6,,0IS6,,,
7247,0IS8,heliport,Blessing Hospital At 11th St Heliport,39.93640137,-91.39900208,650,NA,US,US-IL,Quincy,no,0IS8,,0IS8,,,
7248,0IS9,heliport,Bernardin Heliport,41.70840073,-89.20290375,830,NA,US,US-IL,West Brooklyn,no,0IS9,,0IS9,,,
7249,0J0,small_airport,Abbeville Municipal Airport,31.60020065,-85.23880005,468,NA,US,US-AL,Abbeville,no,0J0,,0J0,,,
7250,0J8,small_airport,Flying Ten Airport,29.61800003,-82.50869751,85,NA,US,US-FL,Archer,no,0J8,,0J8,,,
7251,0K6,small_airport,Dobie's Airport,36.178496,-95.580468,610,NA,US,US-OK,Inola,no,,,0K6,,,
7252,0KS0,small_airport,J V Ranch Airport,38.63330078,-95.9253006,1180,NA,US,US-KS,Osage City,no,0KS0,,0KS0,,,
7253,0KS2,small_airport,Kellie Mann Airfield,38.56000137,-95.30909729,1045,NA,US,US-KS,Ottawa,no,0KS2,,0KS2,,,
7254,0KS3,small_airport,Camp Chippewa Airport,38.56669998,-95.36689758,1120,NA,US,US-KS,Ottawa,no,0KS3,,0KS3,,,
7255,0KS4,small_airport,Norris Airport,38.807239,-95.370056,1065,NA,US,US-KS,Lawrence,no,0KS4,,0KS4,,,
7256,0KS6,small_airport,Kendrigan Airport,37.45220184,-97.31780243,1240,NA,US,US-KS,Peck,no,0KS6,,0KS6,,,
7257,0KS7,small_airport,Mono Aircraft Airport,37.69279861,-97.88639832,1450,NA,US,US-KS,Cheney,no,0KS7,,0KS7,,,
7258,0KS8,small_airport,Pearce Field,37.38249969,-95.37470245,950,NA,US,US-KS,Parsons,no,0KS8,,0KS8,,,
7259,0KS9,small_airport,Lmn 120 Airport,37.51589966,-96.9197998,1330,NA,US,US-KS,Douglas,no,0KS9,,0KS9,,,
7260,0KY0,small_airport,Owen Air Park,38.62279892,-84.77890015,890,NA,US,US-KY,Owenton,no,0KY0,,0KY0,,,
7261,0KY1,small_airport,Arnemann Farms Airport,36.7655983,-86.61830139,504,NA,US,US-KY,Franklin,no,0KY1,,0KY1,,,
7262,0KY2,heliport,Mgt Station 2105 Heliport,37.50559998,-86.83750153,540,NA,US,US-KY,Hartford,no,0KY2,,0KY2,,,
7263,0KY3,heliport,Tennessee Gas Heliport,38.56140137,-83.95279694,604,NA,US,US-KY,Load,no,0KY3,,0KY3,,,
7264,0KY4,small_airport,Cambron Field,37.56439972,-87.08190155,427,NA,US,US-KY,Owensboro,no,0KY4,,0KY4,,,
7265,0KY5,small_airport,Falin Landing Strip,36.8125,-86.375,600,NA,US,US-KY,Bowling Green,no,0KY5,,0KY5,,,
7266,0KY6,heliport,Tennessee Gas Heliport,38.2682991,-82.57749939,560,NA,US,US-KY,Burnaugh,no,0KY6,,0KY6,,,
7267,0KY7,small_airport,Clinton-Hickman County Airport,36.63610077,-88.99859619,360,NA,US,US-KY,Clinton,no,0KY7,,0KY7,,,
7268,0KY8,small_airport,Sky Airport,37.11719894,-83.73609924,850,NA,US,US-KY,Manchester,no,0KY8,,0KY8,,,
7269,0KY9,heliport,Pine Mountain Aero Heliport,37.11360168,-82.8035965,1300,NA,US,US-KY,Whitesburg,no,0KY9,,0KY9,,,
7270,0L4,small_airport,Lida Junction Airport,37.4858017,-117.1910019,4684,NA,US,US-NV,Goldfield,no,0L4,,0L4,,http://en.wikipedia.org/wiki/Lida_Junction_Airport,
7271,0L5,small_airport,Goldfield Airport,37.7179985,-117.237999,5680,NA,US,US-NV,Goldfield,no,0L5,,0L5,,http://en.wikipedia.org/wiki/Goldfield_Airport,
7272,0L6,heliport,Winn Parish Medical Center Heliport,31.92320061,-92.64569855,140,NA,US,US-LA,Winnfield,no,0L6,,0L6,,,
7273,0LA0,heliport,West Hackberry Heliport,30.00849915,-93.40019989,10,NA,US,US-LA,Hackberry,no,0LA0,,0LA0,,,
7274,0LA1,small_airport,Double H Ranch Airport,30.22940063,-90.9733963,15,NA,US,US-LA,Gonzales,no,0LA1,,0LA1,,,
7275,0LA2,small_airport,Don Babin-Private Airport,30.27799988,-90.96320343,17,NA,US,US-LA,Gonzales,no,0LA2,,0LA2,,,
7276,0LA3,small_airport,Belcher Airpatch Airport,32.7492981,-93.87349701,280,NA,US,US-LA,Belcher,no,0LA3,,0LA3,,,
7277,0LA4,heliport,North Caddo Medical Center Heliport,32.86410141,-93.98899841,200,NA,US,US-LA,Vivian,no,0LA4,,0LA4,,,
7278,0LA5,heliport,Conoco Inc Heliport,29.25799942,-89.96369934,3,NA,US,US-LA,Grand Isle,no,0LA5,,0LA5,,,
7279,0LA6,heliport,Freeport Sulphur Heliport,29.25860023,-89.959198,3,NA,US,US-LA,Grand Isle,no,0LA6,,0LA6,,,
7280,0LA7,heliport,Exxon Heliport,29.25580025,-89.96759796,6,NA,US,US-LA,Grand Isle,no,0LA7,,0LA7,,,
7281,0LA8,heliport,Jackson Parish Hospital Heliport,32.25170135,-92.71279907,183,NA,US,US-LA,Jonesboro,no,0LA8,,0LA8,,,
7282,0LA9,small_airport,Rebel Field,30.5862999,-90.8615036,74,NA,US,US-LA,Watson,no,0LA9,,0LA9,,,
7283,0LL0,small_airport,Kaufield Airport,42.26470184,-88.73000336,783,NA,US,US-IL,Belvidere,no,0LL0,,0LL0,,,
7284,0LL1,small_airport,Jerseyville Aviation Inc Airport,39.09420013,-90.31340027,604,NA,US,US-IL,Jerseyville,no,0LL1,,0LL1,,,
7285,0LL2,small_airport,Murk's Strip,40.73889923,-90.38069916,700,NA,US,US-IL,St. Augustine,no,0LL2,,0LL2,,,
7286,0LL3,small_airport,Koenig Airport,39.05500031,-90.34210205,614,NA,US,US-IL,Jerseyville,no,0LL3,,0LL3,,,
7287,0LL4,small_airport,Flaherty Field,41.4192009,-89.12310028,664,NA,US,US-IL,La Salle,no,0LL4,,0LL4,,,
7288,0LL5,small_airport,Busboom RLA Restricted Landing Area,40.11000061,-88.07839966,675,NA,US,US-IL,St Joseph,no,0LL5,,0LL5,,,
7289,0LL6,small_airport,Gord Airport,41.69839859,-88.60759735,710,NA,US,US-IL,Sandwich,no,0LL6,,0LL6,,,
7290,0LL7,heliport,Hospital Heliport,41.65000153,-88.61669922,670,NA,US,US-IL,Sandwich,no,0LL7,,0LL7,,,
7291,0LL9,heliport,Savanna Army Depot Helipad,42.1833992,-90.25569916,650,NA,US,US-IL,Savanna,no,0LL9,,0LL9,,,
7292,0LS0,small_airport,Theriot Field,29.74970055,-90.7358017,13,NA,US,US-LA,Thibodaux,no,0LS0,,0LS0,,,
7294,0LS2,heliport,Evergreen Fourchon Heliport,29.11639977,-90.20220184,6,NA,US,US-LA,Golden Meadow,no,0LS2,,0LS2,,,
7295,0LS3,heliport,Evergreen Venice Heliport,29.29669952,-89.37439728,,NA,US,US-LA,Venice,no,0LS3,,0LS3,,,
7296,0LS4,small_airport,Buller's Airstrip,30.80870056,-92.18800354,47,NA,US,US-LA,Bunkie,no,0LS4,,0LS4,,,
7297,0LS5,small_airport,Trahan Ultralightport,30.30690002,-92.12979889,40,NA,US,US-LA,Cankton,no,0LS5,,0LS5,,,
7298,0LS6,small_airport,Dufour Airport,30.78770065,-92.05039978,42,NA,US,US-LA,Morrow,no,0LS6,,0LS6,,,
7299,0LS7,small_airport,Morgan Field,30.6128006,-91.48419952,36,NA,US,US-LA,New Roads,no,0LS7,,0LS7,,,
7300,0LS8,small_airport,Lonesome Dove Airfield,30.28580093,-92.94129944,34,NA,US,US-LA,Woodlawn,no,0LS8,,0LS8,,,
7301,0LS9,small_airport,Huenefeld Airport,32.50429916,-91.98210144,72,NA,US,US-LA,Monroe,no,0LS9,,0LS9,,,
7302,0MA1,heliport,Massachusetts General Hospital Heliport,42.36370087,-71.06890106,214,NA,US,US-MA,Boston,no,0MA1,,0MA1,,,
7303,0MA2,heliport,Healthalliance Hospital-Leominster Heliport,42.54090118,-71.76280212,450,NA,US,US-MA,Leominster,no,0MA2,,0MA2,,,
7304,0MA3,heliport,Reh Heliport,41.78739929,-71.23179626,100,NA,US,US-MA,Rehoboth,no,0MA3,,0MA3,,,
7305,0MA4,heliport,Boston Medical Center Hospital Heliport,42.33359909,-71.07170105,19,NA,US,US-MA,Boston,no,0MA4,,0MA4,,,
7306,0MA5,heliport,Brockton Usar Center Heliport,42.05590057,-71.05590057,85,NA,US,US-MA,Brockton,no,0MA5,,0MA5,,,
7307,0MA6,heliport,Wbz Heliport,42.36510086,-71.13259888,9,NA,US,US-MA,Boston,no,0MA6,,0MA6,,,
7308,0MA8,heliport,Textron/Everett Heliport,42.40449905,-71.07060242,40,NA,US,US-MA,Everett,no,0MA8,,0MA8,,,
7309,0MA9,heliport,Lleia Kyle O'Meara Heliport,42.50310135,-71.90840149,1230,NA,US,US-MA,Westminster,no,0MA9,,0MA9,,,
7310,0MD0,heliport,Baltimore Washington Medical Center Heliport,39.13759995,-76.62329865,77,NA,US,US-MD,Glen Burnie,no,0MD0,,0MD0,,,
7311,0MD1,small_airport,Taylor Field,39.18730164,-75.79270172,75,NA,US,US-MD,Sudlersville,no,0MD1,,0MD1,,,
7312,0MD2,small_airport,Squier Landing Airport,38.28789902,-76.86750031,16,NA,US,US-MD,Cobb Island,no,0MD2,,0MD2,,,
7313,0MD3,heliport,The Johns Hopkins Hospital Heliport,39.29729843,-76.59329987,260,NA,US,US-MD,Baltimore,no,0MD3,,0MD3,,,
7314,0MD4,small_airport,Pond View Private Airport,39.26679993,-76.18720245,47,NA,US,US-MD,Chestertown,no,0MD4,,0MD4,,,
7315,0MD5,heliport,Greater Laurel Beltsville Hospital Heliport,39.08760071,-76.88159943,285,NA,US,US-MD,Laurel,no,0MD5,,0MD5,,,
7316,0MD6,small_airport,Walters Airport,39.38119888,-77.10579681,750,NA,US,US-MD,Mount Airy,no,0MD6,,0MD6,,,
7317,0MD7,heliport,The Aspen Institute Heliport,38.90930176,-76.11969757,20,NA,US,US-MD,Queenstown,no,0MD7,,0MD7,,,
7318,0MD8,heliport,Security Ford Heliport,39.2458992,-76.67610168,30,NA,US,US-MD,Arbutus,no,0MD8,,0MD8,,,
7319,0MD9,heliport,Calvert Memorial Hospital Heliport,38.56100082,-76.59660339,143,NA,US,US-MD,Prince Frederick,no,0MD9,,0MD9,,,
45455,0ME4,small_airport,Peasley Field,44.742469,-68.474403,271,NA,US,US-ME,Otis,no,0ME4,,0ME4,,,
7320,0MI0,heliport,Sumner Heliport,42.97000122,-85.66590118,657,NA,US,US-MI,Grand Rapids,no,0MI0,,0MI0,,,
7321,0MI1,small_airport,Sugar Springs Airport,44.14030075,-84.4375,940,NA,US,US-MI,Gladwin,no,0MI1,,0MI1,,,
7322,0MI2,small_airport,Stier Airstrip,44.52220154,-83.6832962,850,NA,US,US-MI,Glennie,no,0MI2,,0MI2,,,
7323,0MI3,small_airport,Kelleys Airport,44.63339996,-84.48339844,1000,NA,US,US-MI,Grayling,no,0MI3,,0MI3,,,
7324,0MI4,small_airport,Lesterson Field,46.27019882,-87.3864975,1120,NA,US,US-MI,Gwinn,no,0MI4,,0MI4,,,
7325,0MI6,small_airport,Young's Airport,46.38750076,-85.18399811,800,NA,US,US-MI,Hulbert,no,0MI6,,0MI6,,,
7326,0MI7,heliport,Four Star Heliport,42.04309845,-83.35939789,603,NA,US,US-MI,Carleton,no,0MI7,,0MI7,,,
7327,0MI8,small_airport,Twin Lakes Airport,44.90000153,-84.30000305,1275,NA,US,US-MI,Lewiston,no,0MI8,,0MI8,,,
7328,0MI9,heliport,Henry Ford Hospital Heliport,42.36750031,-83.08439636,633,NA,US,US-MI,Detroit,no,0MI9,,0MI9,,,
7329,0MN0,seaplane_base,Winner's Landing Seaplane Base,44.7969017,-92.98410034,690,NA,US,US-MN,St Paul Park,no,0MN0,,0MN0,,,
7330,0MN1,small_airport,Brinkman Airport,44.26250076,-94.06970215,1020,NA,US,US-MN,St. Peter,no,0MN1,,0MN1,,,
7331,0MN2,seaplane_base,Grindstone Lake Seaplane Base,46.13330078,-93.00299835,1025,NA,US,US-MN,Sandstone,no,0MN2,,0MN2,,,
7332,0MN3,seaplane_base,Lower Hay Lake Seaplane Base,46.67779922,-94.29250336,1230,NA,US,US-MN,Jenkins,no,0MN3,,0MN3,,,
7333,0MN4,seaplane_base,Paul's Seaplane Base,46.47719955,-94.30310059,1200,NA,US,US-MN,Nisswa,no,0MN4,,0MN4,,,
7334,0MN5,small_airport,Pankratz Airport,44.30720139,-94.91690063,1033,NA,US,US-MN,Springfield,no,0MN5,,0MN5,,,
7335,0MN6,small_airport,Matson Field,43.66220093,-92.40429688,1365,NA,US,US-MN,Spring Valley,no,0MN6,,0MN6,,,
7336,0MN7,heliport,Ely Bloomenson Community Hospital Heliport,47.89910126,-91.8730011,1450,NA,US,US-MN,Ely,no,0MN7,,0MN7,,,
7337,0MN8,small_airport,Keller Airport,45.13579941,-92.85939789,990,NA,US,US-MN,Stillwater,no,0MN8,,0MN8,,,
7338,0MN9,heliport,Triple H Heliport,45.31330109,-93.71759796,980,NA,US,US-MN,Big Lake,no,0MN9,,0MN9,,,
7339,0MO0,small_airport,Ferros Ranch-Aero Airport,38.41030121,-93.85019684,775,NA,US,US-MO,Clinton,no,0MO0,,0MO0,,,
7340,0MO1,small_airport,Flying G Airport,38.54449844,-94.09470367,920,NA,US,US-MO,Creighton,no,0MO1,,0MO1,,,
7341,0MO2,small_airport,Short-N-Ruff Airport,37.7867012,-90.78009796,950,NA,US,US-MO,Caledonia,no,0MO2,,0MO2,,,
7342,0MO3,small_airport,Arvin Ranch Airport,38.44029999,-94.59329987,1000,NA,US,US-MO,Drexel,no,0MO3,,0MO3,,,
7343,0MO4,heliport,Bert Walter Berkowitz Heliport,39.08530045,-94.57379913,890,NA,US,US-MO,Kansas City,no,0MO4,,0MO4,,,
7344,0MO5,small_airport,Joe D Lewis Airport,40.13339996,-92.10019684,780,NA,US,US-MO,Edina,no,0MO5,,0MO5,,,
7345,0MO6,small_airport,Hall Airport,40.11669922,-92.26689911,850,NA,US,US-MO,Edina,no,0MO6,,0MO6,,,
7346,0MO7,heliport,St Joseph Hospital West Heliport,38.80329895,-90.77629852,531,NA,US,US-MO,Lake Saint Louis,no,0MO7,,0MO7,,,
7347,0MO8,small_airport,Sloan's Airport,39.1405983,-90.73680115,437,NA,US,US-MO,Elsberry,no,0MO8,,0MO8,,,
7348,0MO9,heliport,Emerson Heliport,38.72949982,-90.27839661,575,NA,US,US-MO,Ferguson,no,0MO9,,0MO9,,,
7349,0MS0,small_airport,Topton Air Estates Airport,32.47499847,-88.61669922,453,NA,US,US-MS,Meridian,no,0MS0,,0MS0,,,
7350,0MS1,small_airport,Franklin Field,31.42519951,-90.9029007,200,NA,US,US-MS,Meadville,no,0MS1,,0MS1,,,
7351,0MS2,small_airport,Morgan Field,31.54179955,-89.39170074,300,NA,US,US-MS,Seminary,no,0MS2,,0MS2,,,
7352,0MS3,heliport,Baptist Memorial Hospital-North Ms Heliport,34.34780121,-89.51899719,430,NA,US,US-MS,Oxford,no,0MS3,,0MS3,,,
7353,0MS4,heliport,Sheriff's Courthouse Heliport,30.37599945,-89.0861969,50,NA,US,US-MS,Gulfport,no,0MS4,,0MS4,,,
7354,0MS5,small_airport,Lewis Air Service Airport,33.39179993,-90.91680145,120,NA,US,US-MS,Leland,no,0MS5,,0MS5,,,
7355,0MS6,heliport,Levert Heliport,30.30130005,-89.23449707,25,NA,US,US-MS,Pass Christian,no,0MS6,,0MS6,,,
7356,0MS7,small_airport,Hale Field,34.34260178,-89.14309692,346,NA,US,US-MS,Pontotoc,no,0MS7,,0MS7,,,
7357,0MS8,small_airport,Catfish Point Airport,33.69929886,-91.1651001,154,NA,US,US-MS,Benoit,no,0MS8,,0MS8,,,
7358,0MS9,small_airport,Shenandoah Valley Farms Airport,33.80070114,-89.02729797,300,NA,US,US-MS,Houston,no,0MS9,,0MS9,,,
7359,0MT1,small_airport,Williams Field,47.49750137,-112.3909988,4070,NA,US,US-MT,Augusta,no,0MT1,,0MT1,,,
7360,0MT2,heliport,Big Sandy Medical Center Heliport,48.17969894,-110.1090012,2750,NA,US,US-MT,Big Sandy,no,0MT2,,0MT2,,,
7361,0MT3,heliport,Stock Farm Heliport,46.25080109,-114.0670013,3920,NA,US,US-MT,Hamilton,no,0MT3,,0MT3,,,
7362,0MT4,small_airport,Kimp Airport,46.27859879,-114.1409988,3510,NA,US,US-MT,Hamilton,no,0MT4,,0MT4,,,
7363,0MT5,small_airport,Cottonwood Airport,45.63420105,-108.848999,3350,NA,US,US-MT,Laurel,no,0MT5,,0MT5,,,
7364,0MT6,small_airport,Hanson Airport,48.04059982,-114.6790009,3900,NA,US,US-MT,Marion,no,0MT6,,0MT6,,,
7365,0MT7,small_airport,Pinehurst Ranch Airport,47.66080093,-115.4039993,2460,NA,US,US-MT,Thompson Falls,no,0MT7,,0MT7,,,
7366,0MT8,heliport,Glacier Heli Tours Heliport,48.48669815,-113.9980011,3300,NA,US,US-MT,West Glacier,no,0MT8,,0MT8,,,
7367,0MT9,small_airport,Lone Hawk Airport,48.48329926,-114.4929962,3284,NA,US,US-MT,White Fish,no,0MT9,,0MT9,,,
7368,0MU0,small_airport,Eagle Field,37.23469925,-91.09359741,784,NA,US,US-MO,Ellington,no,0MU0,,0MU0,,,
7369,0MU1,small_airport,Sunderland Airport,37.24670029,-94.17389679,1027,NA,US,US-MO,Avilla,no,0MU1,,0MU1,,,
7370,0MU2,heliport,Christian Hospital Northeast Heliport,38.7745018,-90.23899841,520,NA,US,US-MO,Florissant,no,0MU2,,0MU2,,,
7371,0MU3,heliport,Hannibal Regional Hospital Heliport,39.71120071,-91.45069885,744,NA,US,US-MO,Hannibal,no,0MU3,,0MU3,,,
7372,0MU4,small_airport,Slaughter Airport,39.61610031,-92.86689758,800,NA,US,US-MO,Marceline,no,0MU4,,0MU4,,,
7373,0MU5,heliport,Holden Heliport,38.71969986,-93.99440002,865,NA,US,US-MO,Holden,no,0MU5,,0MU5,,,
7374,0MU6,heliport,Bradbury-Rolf Memorial Heliport,39.07329941,-93.73590088,815,NA,US,US-MO,Higginsville,no,0MU6,,0MU6,,,
7375,0MU7,small_airport,Lambs Field,38.875,-94.13970184,1070,NA,US,US-MO,Lone Jack,no,0MU7,,0MU7,,,
7376,0MU8,small_airport,Prince STOLport,37.43870163,-89.75900269,582,NA,US,US-MO,Millersville,no,0MU8,,0MU8,,,
7377,0MY0,heliport,Kenyon Heliport,44.33390045,-92.94329834,1500,NA,US,US-MN,Kenyon,no,0MY0,,0MY0,,,
7378,0MY1,heliport,Bozeman Deaconess Hospital Heliport,45.66999817,-111.0189972,4925,NA,US,US-MT,Bozeman,no,0MY1,,0MY1,,,
7379,0N0,small_airport,Roosterville Airport,39.29109955,-94.44219971,1004,NA,US,US-MO,Liberty,no,0N0,,0N0,,,
7380,0N4,small_airport,Chandelle Estates Airport,39.20230103,-75.48549652,22,NA,US,US-DE,Dover,no,0N4,,0N4,,,
7381,0N5,heliport,Deldot Helistop,39.14960098,-75.50489807,30,NA,US,US-DE,Dover,no,0N5,,0N5,,,
7382,0N6,small_airport,Henderson Aviation Airport,39.01259995,-75.53350067,50,NA,US,US-DE,Felton,no,0N6,,0N6,,,
7383,0NA1,small_airport,Goerger Airport,46.24549866,-97.03759766,1045,NA,US,US-ND,Barney,no,0NA1,,0NA1,,,
7384,0NA5,small_airport,Sorlie Airport,48.00109863,-99.56289673,1580,NA,US,US-ND,Maddock,no,0NA5,,0NA5,,,
7385,0NA9,small_airport,Boyd's Turf Airport,46.75,-103.8010025,2750,NA,US,US-ND,Golva,no,0NA9,,0NA9,,,
7386,0NC0,heliport,Wayne Memorial Hospital Inc. Heliport,35.3987999,-77.9496994,106,NA,US,US-NC,Goldsboro,no,0NC0,,0NC0,,,
7387,0NC1,small_airport,Bearwallow Farm Airport,35.45709991,-82.37539673,3608,NA,US,US-NC,Hendersonville,no,0NC1,,0NC1,,,
7388,0NC2,heliport,Moore Regional Hospital Heliport,35.20489883,-79.45670319,460,NA,US,US-NC,Pinehurst,no,0NC2,,0NC2,,,
7389,0NC3,heliport,Washington County Hospital Heliport,35.87519836,-76.6996994,19,NA,US,US-NC,Plymouth,no,0NC3,,0NC3,,,
7390,0NC4,heliport,Wake Medical Center Heliport,35.78680038,-78.58580017,245,NA,US,US-NC,Raleigh,no,0NC4,,0NC4,,,
7391,0NC5,heliport,Nash General Hospital Heliport,35.91889954,-77.78919983,156,NA,US,US-NC,Rocky Mount,no,0NC5,,0NC5,,,
7392,0NC6,heliport,Our Community Hospital Heliport,36.13130188,-77.41889954,113,NA,US,US-NC,Scotland Neck,no,0NC6,,0NC6,,,
7393,0NC7,small_airport,Lindsay Airport,36.35720062,-79.99749756,700,NA,US,US-NC,Madison,no,0NC7,,0NC7,,,
7394,0NC8,small_airport,Double Creek Ranch Airport,35.75569916,-80.73529816,830,NA,US,US-NC,Cleveland,no,0NC8,,0NC8,,,
7395,0NC9,heliport,Maria Parham Hospital Heliport,36.33069992,-78.4496994,465,NA,US,US-NC,Henderson,no,0NC9,,0NC9,,,
7396,0ND0,small_airport,Gilbertson Field,47.92919922,-99.40039825,1550,NA,US,US-ND,Flora,no,0ND0,,0ND0,,,
7397,0ND6,small_airport,Schumacher Strip,46.05500031,-99.917099,2020,NA,US,US-ND,Hague,no,0ND6,,0ND6,,,
7398,0ND7,small_airport,Saville Private Airport,46.46530151,-100.1050034,1961,NA,US,US-ND,Hazelton,no,0ND7,,0ND7,,,
7399,0NE0,small_airport,Merrihew Airport,41.84999847,-101.9499969,3815,NA,US,US-NE,Ashby,no,0NE0,,0NE0,,,
7400,0NE1,small_airport,Runner Landing Area Airport,42.40719986,-101.9319992,3760,NA,US,US-NE,Ashby,no,0NE1,,0NE1,,,
7401,0NE2,small_airport,Merry Airport,41.86660004,-101.9169998,3791,NA,US,US-NE,Ashby,no,0NE2,,0NE2,,,
7402,0NE3,heliport,Syracuse Hospital Heliport,40.66719818,-96.18640137,1120,NA,US,US-NE,Syracuse,no,0NE3,,0NE3,,,
7403,0NE4,heliport,Franklin County Memorial Hospital Heliport,40.09719849,-98.95040131,1950,NA,US,US-NE,Franklin,no,0NE4,,0NE4,,,
7404,0NE5,small_airport,Newman Airport,41.02109909,-102.0179977,3525,NA,US,US-NE,Big Springs,no,0NE5,,0NE5,,,
7405,0NE6,small_airport,Frager Field,40.43330002,-98.07060242,1765,NA,US,US-NE,Fairfield,no,0NE6,,0NE6,,,
7406,0NJ0,heliport,Atlantic City Medical Center Heliport,39.35897025,-74.4346717,82,NA,US,US-NJ,Atlantic City,no,0NJ0,,0NJ0,,,
7407,0NJ1,heliport,Berkeley Township Police Heliport,39.90729904,-74.23490143,54,NA,US,US-NJ,Bayville,no,0NJ1,,0NJ1,,,
7408,0NJ2,heliport,Ballymere Heliport,40.75289917,-74.43990326,280,NA,US,US-NJ,Morristown,no,0NJ2,,0NJ2,,,
7409,0NJ3,heliport,Mount Holly Heliport,39.96680069,-74.79959869,45,NA,US,US-NJ,Mount Holly,no,0NJ3,,0NJ3,,,
7410,0NJ4,heliport,Weichert Headquarters Heliport,40.94070053,-74.46150208,103,NA,US,US-NJ,Morris Plains,no,0NJ4,,0NJ4,,,
7411,0NJ5,small_airport,Fla-Net Airport,40.88589859,-74.70570374,1040,NA,US,US-NJ,Netcong,no,0NJ5,,0NJ5,,,
7412,0NJ6,small_airport,Dix Field,39.31679916,-74.63289642,8,NA,US,US-NJ,Linwood,no,0NJ6,,0NJ6,,,
7413,0NJ7,heliport,Essex Generating Station Heliport,40.7378006,-74.11889648,8,NA,US,US-NJ,Newark,no,0NJ7,,0NJ7,,,
7414,0NJ8,heliport,Port Newark Helistop,40.70230103,-74.15070343,10,NA,US,US-NJ,Newark,no,0NJ8,,0NJ8,,,
7415,0NJ9,heliport,Jersey Tpke New Brunswick Helistop,40.47729874,-74.40789795,70,NA,US,US-NJ,New Brunswick,no,0NJ9,,0NJ9,,,
7416,0NK0,small_airport,Berdick Field,42.33399963,-78.79090118,1690,NA,US,US-NY,Cattaraugus,no,0NK0,,0NK0,,,
7417,0NK1,small_airport,Spring Brook Airport,43.36169815,-76.22019958,450,NA,US,US-NY,Central Square,no,0NK1,,0NK1,,,
7418,0NK2,small_airport,Westwind Farm Airport,42.98339844,-74.0161972,800,NA,US,US-NY,Charlton,no,0NK2,,0NK2,,,
7419,0NK3,small_airport,Seven Gullies Airport,42.69589996,-77.79219818,600,NA,US,US-NY,Groveland,no,0NK3,,0NK3,,,
7420,0NK4,heliport,Medical Center Heliport,40.72589874,-73.55370331,80,NA,US,US-NY,Hempstead,no,0NK4,,0NK4,,,
7421,0NK5,heliport,Mid-Hudson Helicopter Service Heliport,41.60620117,-73.82759857,270,NA,US,US-NY,Hopewell Junction,no,0NK5,,0NK5,,,
7422,0NK6,small_airport,Lapeer Flyer Airport,42.43840027,-76.08879852,1280,NA,US,US-NY,Marathon,no,0NK6,,0NK6,,,
7423,0NK7,heliport,Ibm King St Heliport,41.10250092,-73.72609711,470,NA,US,US-NY,Armonk,no,0NK7,,0NK7,,,
7424,0NK8,small_airport,Rocky Reef Farm Airport,41.92089844,-73.67040253,450,NA,US,US-NY,Attlebury,no,0NK8,,0NK8,,,
7425,0NK9,small_airport,Lakeview Airport,43.01029968,-75.82689667,1050,NA,US,US-NY,Chittenango,no,0NK9,,0NK9,,,
7426,0NM0,small_airport,Columbus Municipal Airport,31.82369995,-107.6269989,4024,NA,US,US-NM,Columbus,no,0NM0,,0NM0,,,
7427,0NM7,small_airport,Negrito Airstrip,33.52090073,-108.5429993,8143,NA,US,US-NM,Reserve,no,0NM7,,0NM7,,,
7428,0NV1,heliport,Summerlin Medical Center Heliport,36.1935997,-115.3010025,2745,NA,US,US-NV,Las Vegas,no,0NV1,,0NV1,,,
7429,0NY0,small_airport,Bennetts Airport,43.70009995,-73.98290253,1040,NA,US,US-NY,North Creek,no,0NY0,,0NY0,,,
7430,0NY1,small_airport,Russell Field,43.1391983,-73.65319824,260,NA,US,US-NY,Northumberland,no,0NY1,,0NY1,,,
7431,0NY3,small_airport,Kermizian Airport,43.31399918,-74.93209839,1440,NA,US,US-NY,Ohio,no,0NY3,,0NY3,,,
7432,0NY5,heliport,State Police Troop D Heliport,43.09420013,-75.64959717,507,NA,US,US-NY,Oneida,no,0NY5,,0NY5,,,
7433,0NY6,heliport,New York State Police Heliport,42.92839813,-76.6155014,600,NA,US,US-NY,Auburn,no,0NY6,,0NY6,,,
7434,0NY7,small_airport,Murphys Landing Strip,43.03760147,-74.18430328,940,NA,US,US-NY,Perth,no,0NY7,,0NY7,,,
7435,0NY8,small_airport,Wenskoski Field,42.99729919,-74.24539948,800,NA,US,US-NY,Perth,no,0NY8,,0NY8,,,
7436,0O0,seaplane_base,San Luis Reservoir Seaplane Base,37.05830002,-121.1259995,544,NA,US,US-CA,Los Banos,no,0O0,,0O0,,,
7437,0O4,small_airport,Corning Municipal Airport,39.9435997,-122.1709976,292,NA,US,US-CA,Corning,no,0O4,,0O4,,http://en.wikipedia.org/wiki/Corning_Municipal_Airport_(California),
7438,0O9,small_airport,Ward Field,41.84569931,-123.9850006,356,NA,US,US-CA,Gasquet,no,0O9,,0O9,,,
7439,0OH1,heliport,Cirino Heliport,41.44390106,-81.32759857,1250,NA,US,US-OH,Chagrin Falls,no,0OH1,,0OH1,,,
7440,0OH2,small_airport,Jenkins Field,39.97060013,-83.91159821,1080,NA,US,US-OH,North Hampton,no,0OH2,,0OH2,,,
7441,0OH3,heliport,Hamilton County Sheriff's Patrol Heliport,39.27920151,-84.56469727,865,NA,US,US-OH,Forest Park,no,0OH3,,0OH3,,,
7442,0OH6,small_airport,Fry Field,39.6006012,-84.0196991,775,NA,US,US-OH,Spring Valley,no,0OH6,,0OH6,,,
7443,0OH7,small_airport,Apple Airport,40.1432991,-84.17189789,1000,NA,US,US-OH,Piqua,no,0OH7,,0OH7,,,
7444,0OH8,small_airport,Fry Airport,40.18840027,-84.25610352,900,NA,US,US-OH,Piqua,no,0OH8,,0OH8,,,
7445,0OH9,small_airport,Parknavy STOLport,40.07170105,-83.22989655,943,NA,US,US-OH,Plain City,no,0OH9,,0OH9,,,
7446,0OI0,heliport,Foltz Heliport,40.73590088,-81.24680328,1012,NA,US,US-OH,East Canton,no,0OI0,,0OI0,,,
7447,0OI1,heliport,Autolite Heliport,41.17919922,-83.41519928,759,NA,US,US-OH,Fostoria,no,0OI1,,0OI1,,,
7448,0OI2,small_airport,Unger Field,39.35979843,-83.41770172,940,NA,US,US-OH,Greenfield,no,0OI2,,0OI2,,,
7449,0OI3,small_airport,Galloway Airport,41.38209915,-82.7161026,643,NA,US,US-OH,Sandusky,no,0OI3,,0OI3,,,
7450,0OI4,small_airport,Salt Box Airport,41.32426453,-81.15930939,1250,NA,US,US-OH,Hiram,no,0OI4,,0OI4,,,
7451,0OI6,small_airport,Victor's Landing Airport,41.83810043,-80.64369965,860,NA,US,US-OH,Kingsville,no,0OI6,,0OI6,,,
7452,0OI9,small_airport,Hidden Quarry Airport,38.89450073,-83.1135025,830,NA,US,US-OH,Lucasville,no,0OI9,,0OI9,,,
7453,0OK0,small_airport,Edmond Airport,35.6833992,-97.43360138,1169,NA,US,US-OK,Edmond,no,0OK0,,0OK0,,,
7454,0OK1,small_airport,Mckey Airport,34.6570015,-97.40170288,1056,NA,US,US-OK,Elmore City,no,0OK1,,0OK1,,,
7455,0OK2,heliport,Parkview Hospital Heliport,35.52980042,-97.98390198,1349,NA,US,US-OK,El Reno,no,0OK2,,0OK2,,,
7456,0OK3,small_airport,Mckinley Ranch Airport,35.61949921,-98.52259827,1420,NA,US,US-OK,Geary,no,0OK3,,0OK3,,,
7457,0OK4,small_airport,Rock Creek Farm Airport,34.66059875,-96.25360107,730,NA,US,US-OK,Coal Gate,no,0OK4,,0OK4,,,
7458,0OK5,small_airport,Chappell Airport,35.88890076,-97.40029907,1070,NA,US,US-OK,Guthrie,no,0OK5,,0OK5,,,
7459,0OK6,small_airport,Ellis/Harvey Airport,35.80170059,-97.38610077,1220,NA,US,US-OK,Guthrie,no,0OK6,,0OK6,,,
7460,0OK7,heliport,Shattuck Hospital Heliport,36.25,-99.87539673,2200,NA,US,US-OK,Shattuck,no,0OK7,,0OK7,,,
7461,0OK8,small_airport,Cade's Airport,36.29249954,-97.5931015,1140,NA,US,US-OK,Covington,no,0OK8,,0OK8,,,
7462,0OK9,small_airport,Crystal Airport,36.21340179,-96.63700104,1016,NA,US,US-OK,Jennings,no,0OK9,,0OK9,,,
7463,0OR0,heliport,Providence Hospital Heliport,42.33869934,-122.8619995,1350,NA,US,US-OR,Medford,no,0OR0,,0OR0,,http://en.wikipedia.org/wiki/Providence_Hospital_Heliport,
7465,0OR2,heliport,Hendershots Heliport,42.1332016,-123.4509964,1200,NA,US,US-OR,Merlin,no,0OR2,,0OR2,,,
7466,0OR3,small_airport,Long Ranch Airport,42.01900101,-121.7040024,4090,NA,US,US-OR,Merrill,no,0OR3,,0OR3,,,
7467,0OR4,heliport,Round Butte Heliport,44.61650085,-121.2679977,2125,NA,US,US-OR,Metolius,no,0OR4,,0OR4,,,
7468,0OR5,small_airport,East Oregon Cattle Co Airport,42.50350189,-122.8550034,1345,NA,US,US-OR,Eagle Point,no,0OR5,,0OR5,,,
7469,0OR6,small_airport,Rome Service Airport,42.83399963,-117.6289978,3387,NA,US,US-OR,Rome,no,0OR6,,0OR6,,,
7470,0OR7,small_airport,Marr Field,44.85400009,-123.2639999,275,NA,US,US-OR,Monmouth,no,0OR7,,0OR7,,,
7471,0OR8,small_airport,Sutton on Rogue Airport,42.48479843,-122.8659973,1260,NA,US,US-OR,White City,no,0OR8,,0OR8,,,
7472,0OR9,small_airport,Hanel Field,45.59260178,-121.5490036,1626,NA,US,US-OR,Mount Hood,no,0OR9,,0OR9,,,
7473,0P0,heliport,Valley Forge Bicentennial Heliport,40.12120056,-75.40599823,260,NA,US,US-PA,Norristown,no,0P0,,0P0,,,
7474,0P1,small_airport,Van Pak Airport,39.8321991,-99.5687027,2213,NA,US,US-KS,Prairie View,no,0P1,,0P1,,,
7475,0P2,small_airport,Shoestring Aviation Airfield,39.7947998,-76.64720154,1000,NA,US,US-PA,Stewartstown,no,0P2,,0P2,,,
7476,0PA0,small_airport,Philadelphia Gliderport,40.32839966,-75.24130249,670,NA,US,US-PA,Hilltown,no,0PA0,,0PA0,,,
7477,0PA1,heliport,Phoenix Technologies Heliport,40.11819839,-75.40129852,252,NA,US,US-PA,Norristown,no,0PA1,,0PA1,,,
7478,0PA2,small_airport,Haunstein Ultralightport,40.31679916,-77.12470245,600,NA,US,US-PA,Shermans Dale,no,0PA2,,0PA2,,,
7479,0PA3,small_airport,Robbins Farm Airport,41.74950027,-76.7602005,1207,NA,US,US-PA,Troy,no,0PA3,,0PA3,,,
7480,0PA4,small_airport,Ecko Field,40.23759842,-76.72470093,380,NA,US,US-PA,Hummelstown,no,0PA4,,0PA4,,,
7481,0PA5,small_airport,Fisher Airport,41.49449921,-79.8309021,1500,NA,US,US-PA,Franklin,no,0PA5,,0PA5,,,
7482,0PA6,small_airport,Hostetler Airport,40.63090134,-77.85030365,760,NA,US,US-PA,Huntingdon,no,0PA6,,0PA6,,,
7483,0PA7,small_airport,Linvill Airport,39.88479996,-75.41490173,180,NA,US,US-PA,Media,no,0PA7,,0PA7,,,
7484,0PA8,heliport,Community Medical Center Nap Heliport,41.40000153,-75.63529968,508,NA,US,US-PA,Scranton,no,0PA8,,0PA8,,,
7485,0PA9,heliport,Carson Heliport,40.33340073,-75.21630096,415,NA,US,US-PA,Perkasie,no,0PA9,,0PA9,,,
7486,0PN0,small_airport,Fletcher Airport,41.4435997,-80.15390015,1335,NA,US,US-PA,Sheakeyville,no,0PN0,,0PN0,,,
7487,0PN1,seaplane_base,Pete's Water Landing Seaplane Base,40.69940186,-79.61889648,757,NA,US,US-PA,Freeport,no,0PN1,,0PN1,,,
7488,0PN2,small_airport,Flying Acres Airport,41.07310104,-80.07029724,1247,NA,US,US-PA,Slippery Rock,no,0PN2,,0PN2,,,
7489,0PN3,heliport,Wyeth-Ayerst Nr Heliport,40.15869904,-75.46340179,186,NA,US,US-PA,Collegeville,no,0PN3,,0PN3,,,
7490,0PN4,small_airport,Kitner Airport,40.41289902,-77.24140167,960,NA,US,US-PA,New Bloomfield,no,0PN4,,0PN4,,,
7491,0PN5,small_airport,Nichols Airport,41.77920151,-79.5983963,1761,NA,US,US-PA,Spartansburg,no,0PN5,,0PN5,,,
7492,0PN6,small_airport,Memmi Airport,40.16899872,-77.99250031,1138,NA,US,US-PA,Three Springs,no,0PN6,,0PN6,,,
7493,0PN7,small_airport,Drillmore Acres Airport,40.12829971,-77.63140106,680,NA,US,US-PA,Newburg,no,0PN7,,0PN7,,,
7494,0PN8,small_airport,Shriver Airport,41.61669922,-79.68309784,1560,NA,US,US-PA,Titusville,no,0PN8,,0PN8,,,
7495,0PN9,small_airport,Paul Personal Use Airport,41.7195015,-79.67780304,1645,NA,US,US-PA,Titusville,no,0PN9,,0PN9,,,
7496,0PS0,small_airport,Frederick Airpark,41.3708992,-79.34169769,1560,NA,US,US-PA,Tylersburg,no,0PS0,,0PS0,,,
7497,0PS1,heliport,Mc Crory Stores Heliport,39.98149872,-76.67140198,420,NA,US,US-PA,York,no,0PS1,,0PS1,,,
7498,0PS2,heliport,Marian Heliport,40.98949814,-75.751297,1285,NA,US,US-PA,Weatherly,no,0PS2,,0PS2,,,
7499,0PS3,small_airport,Carsonville Airport,40.49039841,-76.76660156,800,NA,US,US-PA,Carsonville,no,0PS3,,0PS3,,,
7500,0PS4,small_airport,Old Orchard Airport,41.00839996,-78.56089783,1980,NA,US,US-PA,Curwensville,no,0PS4,,0PS4,,,
7501,0PS5,heliport,Used Parts Heliport,40.87929916,-75.19270325,660,NA,US,US-PA,East Bangor,no,0PS5,,0PS5,,,
7502,0PS6,heliport,Herbst Heliport,39.94950104,-76.55329895,485,NA,US,US-PA,East Prospect,no,0PS6,,0PS6,,,
7503,0PS7,small_airport,Harman Airport,40.52230072,-76.84549713,720,NA,US,US-PA,Elizabethville,no,0PS7,,0PS7,,,
7504,0PS8,heliport,Bayfront Garage Heliport,42.13259888,-80.0861969,1130,NA,US,US-PA,Erie,no,0PS8,,0PS8,,,
7505,0PS9,heliport,Delaware Valley Medical Center Heliport,40.18289948,-74.86789703,141,NA,US,US-PA,Fairless Hills,no,0PS9,,0PS9,,,
7506,0Q3,small_airport,Sonoma Valley Airport,38.2234993,-122.4499969,10,NA,US,US-CA,Schellville/Sonoma,no,0Q3,,0Q3,,,
7507,0Q4,small_airport,Selma Airport,36.58160019,-119.6579971,305,NA,US,US-CA,Selma,no,0Q4,,0Q4,,,
7508,0Q6,closed,Shingletown Airport,40.52209854,-121.8180008,3880,NA,US,US-CA,Shingletown,no,0Q6,,0Q6,,http://en.wikipedia.org/wiki/Shingletown_Airport,
7509,0Q9,small_airport,Sonoma Skypark Airport,38.25770187,-122.4339981,20,NA,US,US-CA,Sonoma,no,0Q9,,0Q9,,,
7510,0R2,small_airport,Lincoln Municipal Airport,38.40390015,-93.33300018,940,NA,US,US-MO,Lincoln,no,0R2,,0R2,,,
7511,0R7,small_airport,The Red River Airport,31.99069977,-93.30740356,177,NA,US,US-LA,Coushatta,no,0R7,,0R7,,,
7512,0R9,small_airport,Plainville Airpark,39.19449997,-99.30339813,2182,NA,US,US-KS,Plainville,no,0R9,,0R9,,,
7513,0S1,small_airport,Meadow Creek Usfs Airport,47.84579849,-113.4089966,3984,NA,US,US-MT,Meadow Creek,no,0S1,,0S1,,,
7514,0S2,small_airport,Stockton Municipal Airport,39.37720108,-99.29509735,1973,NA,US,US-KS,Stockton,no,0S2,,0S2,,,
7515,0S5,small_airport,Nez Perce Municipal Airport,46.23740005,-116.2429962,3201,NA,US,US-ID,Nez Perce,no,0S5,,0S5,,,
7516,0SD0,small_airport,Lenling Airport,45.42499924,-100.8919983,2142,NA,US,US-SD,Glencross,no,0SD0,,0SD0,,,
7517,0SD1,small_airport,Lodi Airport,42.97219849,-96.98020172,1200,NA,US,US-SD,Wakonda,no,0SD1,,0SD1,,,
7518,0SD2,heliport,Prairie Lakes West Heliport,44.91109848,-97.11949921,1799,NA,US,US-SD,Watertown,no,0SD2,,0SD2,,,
7519,0SD3,small_airport,Bledsoe Ranch Airport,45.26940155,-103.2170029,2872,NA,US,US-SD,Hoover,no,0SD3,,0SD3,,,
7520,0SD4,heliport,Brookview Manor Heliport,44.30810165,-96.76470184,1670,NA,US,US-SD,Brookings,no,0SD4,,0SD4,,,
7521,0SD5,heliport,The Fort Heliport,43.8064003,-103.637001,5800,NA,US,US-SD,Custer,no,0SD5,,0SD5,,,
7522,0SD6,small_airport,Oasis Ranch Airport,44.28889847,-101.8259964,2580,NA,US,US-SD,Philip,no,0SD6,,0SD6,,,
7523,0SD7,small_airport,Porch Ranch Airport,43.5243988,-101.7340012,2775,NA,US,US-SD,Wanblee,no,0SD7,,0SD7,,,
7524,0SD8,small_airport,Juhnke Airport,43.78279877,-100.2929993,1900,NA,US,US-SD,Vivian,no,0SD8,,0SD8,,,
7525,0SD9,heliport,Crazy Horse Heliport,43.82500076,-103.6360016,5900,NA,US,US-SD,Custer,no,0SD9,,0SD9,,,
7526,0T3,small_airport,Twin City Airpark,37.31389999,-89.99729919,421,NA,US,US-MO,Marble Hill,no,0T3,,0T3,,,
7527,0T7,small_airport,Kittyhawk Airport,33.12620163,-96.68360138,700,NA,US,US-TX,Allen,no,0T7,,0T7,,,
7528,0TA0,heliport,Mainland Regional Health Care System Heliport,29.3932991,-94.98519897,16,NA,US,US-TX,Lamarque/Texas City,no,0TA0,,0TA0,,,
7529,0TA1,small_airport,Buddy Harmel Airport,34.2195015,-101.9800034,3552,NA,US,US-TX,Halfway,no,0TA1,,0TA1,,,
7530,0TA2,small_airport,Smith Farms Airport,34.21670151,-101.9250031,3487,NA,US,US-TX,Halfway,no,0TA2,,0TA2,,,
7531,0TA3,small_airport,Tate Ranch Airport,30.30430031,-102.1380005,2650,NA,US,US-TX,Dryden,no,0TA3,,0TA3,,,
7532,0TA4,small_airport,Erco Field,32.4978981,-96.27050018,395,NA,US,US-TX,Kaufman,no,0TA4,,0TA4,,,
7533,0TA5,heliport,Metro Heli-Pad Heliport,29.61470032,-95.35489655,57,NA,US,US-TX,Houston,no,0TA5,,0TA5,,,
7534,0TA6,heliport,Arco Ingleside Shorebase Heliport,27.8477993,-97.22299957,20,NA,US,US-TX,Ingleside,no,0TA6,,0TA6,,,
7535,0TA7,small_airport,Alta Vista Ranch Airport,30.14819908,-103.8929977,4702,NA,US,US-TX,Marfa,no,0TA7,,0TA7,,,
7536,0TA8,small_airport,Womack Plantation Airport,33.84870148,-95.40720367,410,NA,US,US-TX,Paris,no,0TA8,,0TA8,,,
7537,0TA9,heliport,Houston Oil & Minerals Port Bolivar Nr 2 Heliport,29.39109993,-94.76409912,8,NA,US,US-TX,Port Bolivar,no,0TA9,,0TA9,,,
7538,0TE0,small_airport,Robertson Ranch Airport,29.69300079,-101.1620026,1663,NA,US,US-TX,Comstock,no,0TE0,,0TE0,,,
7539,0TE1,heliport,Christus Spohn Hospital Memorial Heliport,27.77980042,-97.41419983,38,NA,US,US-TX,Corpus Christi,no,0TE1,,0TE1,,,
7540,0TE2,heliport,Bell Helicopter Hurst Heliport,32.80009842,-97.16699982,524,NA,US,US-TX,Hurst,no,0TE2,,0TE2,,,
7541,0TE3,small_airport,Buzz Field,33.92919922,-100.8420029,2614,NA,US,US-TX,Roaring Springs,no,0TE3,,0TE3,,,
7542,0TE4,small_airport,Hilltop Lakes Airport,31.08099937,-96.21520233,501,NA,US,US-TX,Hilltop Lakes,no,0TE4,,0TE4,,,
7543,0TE5,small_airport,Santa Maria Ranch Airport,27.43379974,-99.18589783,516,NA,US,US-TX,Laredo,no,0TE5,,0TE5,,,
7544,0TE6,small_airport,Gorman Airport,32.20429993,-98.66560364,1452,NA,US,US-TX,Gorman,no,0TE6,,0TE6,,,
7545,0TE7,small_airport,LBJ Ranch Airport,30.25180054,-98.62249756,1515,NA,US,US-TX,Johnson City,no,0TE7,JCY,0TE7,,,
7546,0TE8,heliport,Texas World Speedway Helistop Nr 1 Heliport,30.54050064,-96.22250366,270,NA,US,US-TX,College Station,no,0TE8,,0TE8,,,
7547,0TE9,heliport,Texas World Speedway Helistop Nr 2 Heliport,30.53960037,-96.22609711,270,NA,US,US-TX,College Station,no,0TE9,,0TE9,,,
7548,0TN0,small_airport,R & S Buzzard Airport,35.67670059,-86.896698,810,NA,US,US-TN,Spring Hill,no,0TN0,,0TN0,,,
7549,0TN1,seaplane_base,Tims Ford Seaplane Base,35.22230148,-86.22000122,785,NA,US,US-TN,Tullahoma,no,0TN1,,0TN1,,,
7550,0TN2,small_airport,Village Airport,35.65589905,-84.1855011,920,NA,US,US-TN,Greenback,no,0TN2,,0TN2,,,
7551,0TN3,heliport,Park West Heliport,35.91759872,-84.10019684,1000,NA,US,US-TN,Knoxville,no,0TN3,,0TN3,,,
7552,0TN4,heliport,St Mary's Medical Center Heliport,35.99169922,-83.92769623,790,NA,US,US-TN,Knoxville,no,0TN4,,0TN4,,,
7553,0TN5,small_airport,Mc Donald Airport,35.86740112,-86.49780273,600,NA,US,US-TN,Murfreesboro,no,0TN5,,0TN5,,,
7554,0TN6,small_airport,Riner Farm Airport,36.1833992,-84.09909821,1125,NA,US,US-TN,Norris,no,0TN6,,0TN6,,,
7555,0TN7,heliport,Horne Properties Heliport,35.92359924,-84.0911026,975,NA,US,US-TN,Knoxville,no,0TN7,,0TN7,,,
7556,0TN8,heliport,Erlanger Medical Center Heliport,35.04919815,-85.29049683,745,NA,US,US-TN,Chattanooga,no,0TN8,,0TN8,,,
7557,0TN9,heliport,East Tennessee Children's Hospital Heliport,35.95619965,-83.9382019,1003,NA,US,US-TN,Knoxville,no,0TN9,,0TN9,,,
7558,0TS0,small_airport,Flower Mound Airport,33.02289963,-97.12249756,625,NA,US,US-TX,Flower Mound,no,0TS0,,0TS0,,,
7559,0TS1,small_airport,Dooley Airport,33.09870148,-97.27249908,650,NA,US,US-TX,Justin,no,0TS1,,0TS1,,,
7560,0TS2,small_airport,Ultralight International Ultralightport,32.94869995,-97.3289032,820,NA,US,US-TX,Haslet,no,0TS2,,0TS2,,,
7561,0TS3,heliport,Houston Heliport,29.81739998,-95.66329956,100,NA,US,US-TX,Houston,no,0TS3,,0TS3,,,
7562,0TS4,small_airport,Ullrich Airport,30.09189987,-96.79499817,410,NA,US,US-TX,Ledbetter,no,0TS4,,0TS4,,,
7563,0TS5,small_airport,Lake Bay Gall Airport,30.44190025,-95.18630219,230,NA,US,US-TX,Cleveland,no,0TS5,,0TS5,,,
7564,0TS6,heliport,Harris County Courthouse Heliport,29.71610069,-95.47689819,105,NA,US,US-TX,Houston,no,0TS6,,0TS6,,,
7565,0TS7,small_airport,Flying U Airport,32.83349991,-98.12529755,978,NA,US,US-TX,Mineral Wells,no,0TS7,,0TS7,,,
7566,0TS8,small_airport,Flying 'K' Ranch Ultralightport,26.15040016,-97.88359833,81,NA,US,US-TX,Mercedes,no,0TS8,,0TS8,,,
7567,0TS9,small_airport,Jim Roach Field,30.01549911,-97.73719788,600,NA,US,US-TX,Niederwald,no,0TS9,,0TS9,,,
4777,0TT8,heliport,Dynasty Heliport,14.96329975,145.6419983,150,OC,MP,MP-U-A,"San Jose, Tinian",no,0TT8,,0TT8,,,
7568,0TX0,small_airport,Nassau Bay Airport,32.41960144,-97.71279907,714,NA,US,US-TX,Granbury,no,0TX0,,0TX0,,,
7569,0TX1,small_airport,Pecan Plantation Airport,32.35400009,-97.67639923,710,NA,US,US-TX,Granbury,no,0TX1,,0TX1,,,
7570,0TX2,heliport,Heliport-Facility 5a Heliport,32.76259995,-97.05860138,546,NA,US,US-TX,Grand Prairie,no,0TX2,,0TX2,,,
7571,0TX3,heliport,Panola General Hospital Heliport,32.16630173,-94.34600067,296,NA,US,US-TX,Carthage,no,0TX3,,0TX3,,,
7572,0TX4,heliport,Aerospatiale Helicopter Corp Heliport,32.71170044,-97.02719879,535,NA,US,US-TX,Grand Prairie,no,0TX4,,0TX4,,,
7573,0TX5,small_airport,Shiloh Airport,33.02399826,-97.11969757,635,NA,US,US-TX,Flower Mound,no,0TX5,,0TX5,,,
7574,0TX6,small_airport,Elm Creek Airpark,29.50519943,-97.99690247,550,NA,US,US-TX,Seguin,no,0TX6,,0TX6,,,
7575,0TX7,small_airport,Lazy K Acres Airport,32.95009995,-97.15029907,700,NA,US,US-TX,Grapevine,no,0TX7,,0TX7,,,
7576,0TX8,small_airport,Jacobia Field,33.18040085,-96.04329681,570,NA,US,US-TX,Greenville,no,0TX8,,0TX8,,,
7577,0TX9,small_airport,Card Aerodrome,33.25009918,-96.11689758,540,NA,US,US-TX,Greenville,no,0TX9,,0TX9,,,
7578,0U0,small_airport,Landmark US Forest Service Airport,44.64239883,-115.5329971,6662,NA,US,US-ID,Landmark,no,0U0,,0U0,,,
7579,0U1,small_airport,Warm Springs Creek Airport,44.14210129,-115.314003,4831,NA,US,US-ID,Lowman,no,0U1,,0U1,,,
7580,0U2,small_airport,Copper Basin Airport,43.80179977,-113.8310013,7920,NA,US,US-ID,Mackay,no,0U2,,0U2,,,
7581,0U3,small_airport,Mahoney Creek US Forest Service Airport,44.74459839,-114.9209976,4618,NA,US,US-ID,Mahoney Creek,no,0U3,,0U3,,,
7582,0U7,small_airport,Hollow Top Airport,43.32490158,-113.5879974,5359,NA,US,US-ID,Martin,no,0U7,,0U7,,,
7583,0U8,small_airport,May Airport,44.61019897,-113.8960037,5324,NA,US,US-ID,May,no,0U8,,0U8,,,
7584,0U9,small_airport,Lee Williams Memorial Airport,44.46160126,-116.7580032,2617,NA,US,US-ID,Midvale,no,0U9,,0U9,,,
7585,0VA0,heliport,Mostly Harmless Heliport,37.9654007,-77.77749634,330,NA,US,US-VA,Bumpass,no,0VA0,,0VA0,,,
7586,0VA1,small_airport,Johnson Fox Field,37.23350143,-79.58529663,900,NA,US,US-VA,Bedford,no,0VA1,,0VA1,,,
7587,0VA2,small_airport,Riverwood Airport,37.79650116,-79.76670074,1020,NA,US,US-VA,Iron Gate,no,0VA2,,0VA2,,,
7588,0VA3,small_airport,Hunt Airport,37.69879913,-77.09529877,150,NA,US,US-VA,Manquin,no,0VA3,,0VA3,,,
7589,0VA4,small_airport,Worley Field,36.95009995,-79.87950134,1219,NA,US,US-VA,Rocky Mount,no,0VA4,,0VA4,,,
7590,0VA5,small_airport,Coffman Field,37.69414437,-77.66089439,280,NA,US,US-VA,Richmond,no,0VA5,,0VA5,,,Rockville
7591,0VA6,heliport,Mc Guire Va Medical Center Pad Heliport,37.49599838,-77.46219635,178,NA,US,US-VA,Richmond,no,0VA6,,0VA6,,,
7592,0VA7,small_airport,Flatrock Air Strip,37.52320099,-77.81939697,425,NA,US,US-VA,Richmond,no,0VA7,,0VA7,,,
7593,0VA8,small_airport,Jayarz Airport,37.28580093,-77.79119873,210,NA,US,US-VA,Mannboro,no,0VA8,,0VA8,,,
7594,0VA9,small_airport,Handy Strip,37.44739914,-76.45379639,8,NA,US,US-VA,Gloucester Court House,no,0VA9,,0VA9,,,
7595,0VI1,small_airport,Brooklyn Airport,37.68889999,-77.10140228,145,NA,US,US-VA,Manquin,no,0VI1,,0VI1,,,
7596,0W0,seaplane_base,Seattle Seaplanes Seaplane Base,47.62760162,-122.3320007,14,NA,US,US-WA,Seattle,no,0W0,,0W0,,,
7597,0W7,seaplane_base,Floathaven Seaplane Base,48.72819901,-122.3359985,307,NA,US,US-WA,Bellingham,no,0W7,,0W7,,,
7598,0WA0,heliport,Streamline Heliport,47.98289871,-122.038002,116,NA,US,US-WA,Machias,no,0WA0,,0WA0,,,
7599,0WA1,small_airport,Dwight Field,46.61709976,-122.8259964,350,NA,US,US-WA,Chehalis,no,0WA1,,0WA1,,,
7600,0WA2,small_airport,Curtis Airport,46.5904007,-123.1050034,254,NA,US,US-WA,Curtis,no,0WA2,,0WA2,,,
7601,0WA3,heliport,Air Columbia Heliport,45.68259811,-121.9000015,149,NA,US,US-WA,Stevenson,no,0WA3,,0WA3,,,
7602,0WA4,heliport,Hansen Heliport,47.43619919,-120.2799988,1250,NA,US,US-WA,East Wenatchee,no,0WA4,,0WA4,,,
7603,0WA5,heliport,Ware Mountain Heliport,48.37929916,-122.288002,750,NA,US,US-WA,Mount Vernon,no,0WA5,,0WA5,,,
7604,0WA6,heliport,Stevens Memorial Hospital Heliport,47.80369949,-122.3339996,370,NA,US,US-WA,Edmonds,no,0WA6,,0WA6,,,
7605,0WA7,heliport,Shamrock Port Heliport,47.77690125,-117.0839996,2172,NA,US,US-WA,Newman Lake,no,0WA7,,0WA7,,,
7606,0WA8,heliport,Childrens Hospital Emergency Heliport,47.66400146,-122.2809982,125,NA,US,US-WA,Seattle,no,0WA8,,0WA8,,,
7607,0WA9,heliport,Naval Station Everett Heliport,47.9864606,-122.2242951,5,NA,US,US-WA,Everett,no,0WA9,,0WA9,,,
7608,0WI0,heliport,Aurora St Luke's Medical Center Heliport,42.98889923,-87.95149994,761,NA,US,US-WI,Milwaukee,no,0WI0,,0WI0,,,
7609,0WI1,small_airport,Mort's Landing Airport,45.50719833,-92.14189911,1255,NA,US,US-WI,Comstock,no,0WI1,,0WI1,,,
7610,0WI2,small_airport,Doering Farms Airfield,43.20140076,-88.33339691,910,NA,US,US-WI,Monches,no,0WI2,,0WI2,,,
7611,0WI3,heliport,Aurora Lakeland Medical Center Heliport,42.6617012,-88.49680328,1040,NA,US,US-WI,Elkhorn,no,0WI3,,0WI3,,,
7612,0WI4,small_airport,Snow Crest Ranch Airport,43.82939911,-89.3526001,810,NA,US,US-WI,Montello,no,0WI4,,0WI4,,,
7613,0WI5,small_airport,Crash In International Airport,42.79339981,-87.89060211,755,NA,US,US-WI,Husher,no,0WI5,,0WI5,,,
7614,0WI6,small_airport,Simandl Field/Private Airport,42.87360001,-88.15789795,805,NA,US,US-WI,Muskego,no,0WI6,,0WI6,,,
7615,0WI7,small_airport,With Wings And A Halo Airport,44.13359833,-88.4992981,760,NA,US,US-WI,Neenah,no,0WI7,,0WI7,,,
7616,0WI8,small_airport,Oconomowoc Airport,43.13890076,-88.47229767,885,NA,US,US-WI,Oconomowoc,no,0WI8,,0WI8,,,
7617,0WI9,small_airport,Mc Manus Hoonch-Na-Shee-Kaw Airport,42.9314003,-89.33869934,931,NA,US,US-WI,Oregon,no,0WI9,,0WI9,,,
7618,0WN0,small_airport,Rucilla's Roost Airport,48.13729858,-123.112999,15,NA,US,US-WA,Sequim,no,0WN0,,0WN0,,,
7619,0WN1,small_airport,Shangri-La Airport,46.75189972,-120.6019974,1500,NA,US,US-WA,Selah,no,0WN1,,0WN1,,,
45908,0WN2,small_airport,Coopers Landing,46.127778,-119.015,435,NA,US,US-WA,Kennewick,no,0WN2,,0WN2,,,
7621,0WN4,heliport,Olympia Heliport,46.9640007,-122.8919983,200,NA,US,US-WA,Olympia,no,0WN4,,0WN4,,,
7622,0WN5,small_airport,Potts Field,42.79970169,-88.04869843,815,NA,US,US-WI,North Cape,no,0WN5,,0WN5,,,
7623,0WN6,heliport,L-Z Blue Thunder Heliport,48.95339966,-122.8180008,75,NA,US,US-WA,Blaine,no,0WN6,,0WN6,,,
7624,0WN7,heliport,Enumclaw Community Hospital Heliport,47.20650101,-121.9810028,700,NA,US,US-WA,Enumclaw,no,0WN7,,0WN7,,,
7625,0WN8,heliport,Sheldon Heliport,47.25109863,-116.8519974,2129,NA,US,US-ID,Coeur D'Alene,no,0WN8,,0WN8,,,
45906,0WN9,small_airport,Wings For Christ Airport,48.430464,-119.486058,1000,NA,US,US-WA,Omak,no,0WN9,,0WN9,,,
45936,0WY0,small_airport,Freedom Air Ranch Airport,43.039722,-111.038056,5698,NA,US,US-WY,Freedom,no,0WY0,,0WY0,,,
45935,0WY1,small_airport,Dorsey Creek Ranch Airport,44.411111,-108.163333,4017,NA,US,US-WY,Basin,no,0WY1,,0WY1,,,
7626,0XA0,heliport,Parkland Hospital Nr 2 Heliport,32.81140137,-96.83879852,548,NA,US,US-TX,Dallas,no,0XA0,,0XA0,,,
7628,0XA2,heliport,Fort Duncan Medical Center Heliport,28.71209908,-100.4570007,884,NA,US,US-TX,Eagle Pass,no,0XA2,,0XA2,,,
7629,0XA3,heliport,Midstream Freeport Heliport,28.97170067,-95.28309631,6,NA,US,US-TX,Freeport,no,0XA3,,0XA3,,,
7630,0XA4,small_airport,Seven C's Ranch Airport,27.99690056,-98.88220215,331,NA,US,US-TX,Freer,no,0XA4,,0XA4,,,
7631,0XA5,small_airport,74 Ranch Airport,28.68490028,-98.38279724,320,NA,US,US-TX,Campbellton,no,0XA5,,0XA5,,,
7632,0XA6,heliport,Jaxon Landing Heliport,33.45000076,-101.939003,3270,NA,US,US-TX,Lubbock,no,0XA6,,0XA6,,,
7633,0XA7,small_airport,Bar 3 Ranch Airport,30.66270065,-97.62509918,744,NA,US,US-TX,Georgetown,no,0XA7,,0XA7,,,
7634,0XA8,small_airport,Ohho Airport,30.27000046,-98.10829926,1340,NA,US,US-TX,Dripping Springs,no,0XA8,,0XA8,,,
7635,0XA9,heliport,Methodist Mansfield Medical Center Heliport,32.56779861,-97.09529877,633,NA,US,US-TX,Mansfield,no,0XA9,,0XA9,,,
7636,0XS0,small_airport,Diamond H Ranch Airport,28.40029907,-99.55870056,511,NA,US,US-TX,Catarina,no,0XS0,,0XS0,,,
7637,0XS1,small_airport,Rodgers Roost Airport,29.28779984,-96.34970093,129,NA,US,US-TX,El Campo,no,0XS1,,0XS1,,,
7638,0XS2,small_airport,John Fields Ranch Airport,30.55489922,-100.5339966,2342,NA,US,US-TX,Sonora,no,0XS2,,0XS2,,,
7639,0XS3,heliport,South Texas Project Heliport,28.79220009,-96.04190063,32,NA,US,US-TX,Palacios,no,0XS3,,0XS3,,,
7640,0XS4,heliport,Eds Heliport,33.09170151,-96.68609619,602,NA,US,US-TX,Allen,no,0XS4,,0XS4,,,
7641,0XS5,heliport,Southeastern Helicopters Heliport,26.14699936,-97.17389679,5,NA,US,US-TX,South Padre Island,no,0XS5,,0XS5,,,
7642,0XS6,small_airport,Lakeside Beach Airport,30.50099945,-98.14700317,800,NA,US,US-TX,Spicewood,no,0XS6,,0XS6,,,
7643,0XS7,small_airport,Anacacho Ranch Airport,29.19190025,-100.2750015,1067,NA,US,US-TX,Spofford,no,0XS7,,0XS7,,,
7644,0XS8,small_airport,Dunbar Ranch Airport,29.0760994,-100.375,958,NA,US,US-TX,Spofford,no,0XS8,,0XS8,,,
45852,0XS9,small_airport,French Field,32.134042,-95.339583,540,NA,US,US-TX,Bullard,no,0XS9,,0XS9,,,
7645,0Y4,small_airport,Lambert Fechter Municipal Airport,43.16419983,-95.47000122,1452,NA,US,US-IA,Hartley,no,0Y4,,0Y4,,,
7646,0Y6,small_airport,Lake Mills Municipal Airport,43.41659927,-93.50849915,1260,NA,US,US-IA,Lake Mills,no,0Y6,,0Y6,,,
7647,0Z2,small_airport,Road Commission Nr 1 Airport,63.10820007,-147.5319977,2525,NA,US,US-AK,Denali,no,0Z2,,0Z2,,,
7648,0Z3,seaplane_base,Shannons Pond Seaplane Base,59.05899811,-158.5769958,80,NA,US,US-AK,Dillingham,no,0Z3,,0Z3,,,
7649,10AK,small_airport,Hunt Strip,61.59189987,-149.6779938,200,NA,US,US-AK,Wasilla,no,10AK,,10AK,,,
7650,10AL,heliport,North Jackson Hospital Heliport,34.91400146,-85.77089691,650,NA,US,US-AL,Bridgeport,no,10AL,,10AL,,,
7651,10AR,heliport,Huntsville Memorial Hospital Heliport,36.09400177,-93.74240112,1495,NA,US,US-AR,Huntsville,no,10AR,,10AR,,,
7652,10AZ,small_airport,Pierce Airport,33.36640167,-112.6179962,860,NA,US,US-AZ,Buckeye,no,10AZ,,10AZ,,,
7653,10CA,heliport,William E Poole Heliport,34.602252,-117.172451,3120,NA,US,US-CA,Apple Valley,no,10CA,,10CA,,,
7654,10CL,small_airport,Joe Gottlieb Field,35.36800003,-119.1949997,347,NA,US,US-CA,Bakersfield,no,10CL,,10CL,,,
7655,10CO,small_airport,Silkman Farms Inc. Airport,39.45470047,-102.2129974,4000,NA,US,US-CO,Burlington,no,10CO,,10CO,,,
7656,10D,small_airport,Winsted Municipal Airport,44.95000076,-94.06690216,1030,NA,US,US-MN,Winsted,no,10D,,10D,,,
7657,10F,small_airport,Rosser Ranch Airport,33.01539993,-98.62529755,1112,NA,US,US-TX,Graham,no,10F,,10F,,,
7658,10FA,small_airport,Flying Baron Estates Airport,28.79750061,-81.93589783,75,NA,US,US-FL,Leesburg,no,10FA,,10FA,,,
7659,10FD,small_airport,Seven Feathers Airport,29.00659943,-82.40460205,68,NA,US,US-FL,Dunnellon,no,10FD,,10FD,,,
7660,10FL,heliport,Fishermen's Hospital Emergency Helistop,24.71039963,-81.09449768,5,NA,US,US-FL,Marathon,no,10FL,,10FL,,,
7661,10GA,small_airport,Beaverbrook Aerodrome,33.32509995,-84.2983017,910,NA,US,US-GA,Griffin,no,10GA,,10GA,,,
7662,10IA,small_airport,Flyers Airport,42.41669846,-92.25019836,830,NA,US,US-IA,Waterloo,no,10IA,,10IA,,,
7663,10ID,small_airport,Flat Top Airstrip,43.49440002,-113.9219971,5841,NA,US,US-ID,Muldoon,no,10ID,,10ID,,,
7664,10II,heliport,Jasper County Hospital Heliport,40.93450165,-87.13860321,660,NA,US,US-IN,Rensselaer,no,10II,,10II,,,
7665,10IL,heliport,Riverside Medical Center Heliport,41.12360001,-87.88529968,620,NA,US,US-IL,Kankakee,no,10IL,,10IL,,,
7666,10IN,small_airport,Squires Airport,39.71839905,-85.04889679,1000,NA,US,US-IN,Connersville,no,10IN,,10IN,,,
7667,10KS,heliport,University of Kansas Hospital Heliport,39.056277,-94.608892,958,NA,US,US-KS,Kansas City,no,10KS,,10KS,,,University of Kansas Medical Center Heliport
7668,10KY,heliport,Southwest Government Center Heliport,38.14839935,-85.8368988,480,NA,US,US-KY,Louisville,no,10KY,,10KY,,,
7669,10LA,small_airport,Industrial Helicopters Inc. Airport,30.24740028,-92.09600067,35,NA,US,US-LA,Scott,no,10LA,,10LA,,,
7670,10LS,small_airport,G & J Fly A Way Ultralightport,30.04630089,-91.99459839,20,NA,US,US-LA,Youngsville,no,10LS,,10LS,,,
7671,10MA,seaplane_base,Beaver Lake Seaplane Base,42.26259995,-72.30699921,384,NA,US,US-MA,Ware,no,10MA,,10MA,,,
7672,10MI,heliport,St Mary's Hospital Heliport,43.42589951,-83.93859863,595,NA,US,US-MI,Saginaw,no,10MI,,10MI,,,
7673,10MN,seaplane_base,Lookout Lake Seaplane Base,46.4375,-93.95610046,1200,NA,US,US-MN,Ironton,no,10MN,,10MN,,,
7674,10MO,small_airport,Eckerts Airstrip,38.91450119,-91.70429993,839,NA,US,US-MO,Williamsburg,no,10MO,,10MO,,,
7675,10MS,heliport,Daniel Emergency Response Team Heliport,30.53030014,-88.55889893,20,NA,US,US-MS,Moss Point,no,10MS,,10MS,,,
7676,10MT,small_airport,Hoolie Airport,47.83330154,-106.4840012,2526,NA,US,US-MT,Haxby,no,10MT,,10MT,,,
7677,10MU,heliport,Freeman Neosha Hospital Heliport,36.86780167,-94.36889648,1110,NA,US,US-MO,Neosho,no,10MU,,10MU,,,
7678,10NC,small_airport,Johnston Farm Airport,36.3431015,-77.50939941,60,NA,US,US-NC,Jackson,no,10NC,,10NC,,,
7679,10ND,small_airport,Smith Strip,47.1875,-102.3619995,2200,NA,US,US-ND,Halliday,no,10ND,,10ND,,,
7680,10NE,heliport,St Joseph Hospital Heliport,41.2655983,-95.95449829,1130,NA,US,US-NE,Omaha,no,10NE,,10NE,,,
7681,10NH,heliport,Clark Heliport,42.87409973,-71.17970276,320,NA,US,US-NH,Hampstead,no,10NH,,10NH,,,
7682,10NJ,heliport,St Francis M C Helistop,40.21839905,-74.73880005,55,NA,US,US-NJ,Trenton,no,10NJ,,10NJ,,,
7683,10NY,heliport,Beaver Meadow Heliport,43.36899948,-75.1595993,1195,NA,US,US-NY,Remsen,no,10NY,,10NY,,,
7684,10OH,small_airport,Zoellner Airport,41.40280151,-82.62909698,617,NA,US,US-OH,Huron,no,10OH,,10OH,,,
7685,10OK,small_airport,Hickory Hills Airport,35.16669846,-97.21700287,1175,NA,US,US-OK,Norman,no,10OK,,10OK,,,
7686,10OR,small_airport,Stevens Mountain Airport,45.78929901,-123.2320023,1000,NA,US,US-OR,Vernonia,no,10OR,,10OR,,,
7687,10PA,heliport,Piac Heliport,39.86259842,-75.3105011,8,NA,US,US-PA,Essington,no,10PA,,10PA,,,
7688,10PN,heliport,One Meridian Plaza Heliport,39.93069839,-75.24410248,560,NA,US,US-PA,Philadelphia,no,10PN,,10PN,,,
7689,10TA,heliport,Bear Creek Heliport,29.79220009,-95.63490295,100,NA,US,US-TX,Houston,no,10TA,,10TA,,,
7690,10TE,small_airport,Gottwald Field,29.66690063,-97.50029755,440,NA,US,US-TX,Harwood,no,10TE,,10TE,,,
7691,10TN,small_airport,Flatwood Field,36.07189941,-86.35440063,600,NA,US,US-TN,Lebanon,no,10TN,,10TN,,,
7692,10TS,small_airport,Saint's Strip Ultralightport,29.55249977,-98.10310364,980,NA,US,US-TX,Marion,no,10TS,,10TS,,,
7693,10TX,heliport,Jbh Aerospace Heliport,27.84469986,-97.22389984,15,NA,US,US-TX,Ingleside,no,10TX,,10TX,,,
45863,10UT,heliport,Gilbert Development Corp Heliport,37.172778,-113.434444,3300,NA,US,US-UT,Hurricane,no,10UT,,10UT,,,
7694,10VA,small_airport,Nashs Airport,37.38629913,-78.81310272,785,NA,US,US-VA,Appomattox,no,10VA,,10VA,,,
7695,10WA,small_airport,Mullan Hill Airport,47.55459976,-117.413002,2310,NA,US,US-WA,Spokane,no,10WA,,10WA,,,
7696,10WI,small_airport,Buds Landing Airport,45.11579895,-88.1894989,850,NA,US,US-WI,Pound,no,10WI,,10WI,,,
45941,10WY,small_airport,Willow Creek Ranch Airport,43.423333,-106.823611,5521,NA,US,US-WY,Kaycee,no,10WY,,10WY,,,
7697,10XS,small_airport,Flying S Air Ranch Airport,31.77949905,-98.90930176,1447,NA,US,US-TX,Brownwood,no,10XS,,10XS,,,
7698,11AK,small_airport,Rocking T. Ranch Airport,63.99959946,-145.5019989,1190,NA,US,US-AK,Delta Junction,no,11AK,,11AK,,,
7699,11AL,heliport,Ech Stagefield Army Heliport,31.39369965,-85.75150299,268,NA,US,US-AL,Fort Rucker/Ozark,no,11AL,,11AL,,,
7700,11AR,heliport,St. Joseph's Mercy Heliport,34.46777778,-93.06527778,558,NA,US,US-AR,Hot Springs,no,11AR,,11AR,,,
7701,11AZ,small_airport,Whetstone Airport,31.68370056,-110.2900009,4250,NA,US,US-AZ,Huachuca City,no,11AZ,,11AZ,,,
7702,11CA,small_airport,Turner Field,36.6733017,-119.7220001,300,NA,US,US-CA,Fowler,no,11CA,,11CA,,,
7703,11CL,small_airport,Hansen Airport,34.63000107,-117.6529999,2885,NA,US,US-CA,Adelanto,no,11CL,,11CL,,,
7704,11CO,heliport,Channel 7 Heliport,39.72529984,-104.9840012,5300,NA,US,US-CO,Denver,no,11CO,,11CO,,,
7705,11FA,small_airport,B & L Farms Airport,25.58370018,-80.49980164,9,NA,US,US-FL,Homestead,no,11FA,,11FA,,,
7706,11FD,heliport,North Okaloosa Medical Center Heliport,30.73570061,-86.56269836,230,NA,US,US-FL,Crestview,no,11FD,,11FD,,,
7707,11FL,small_airport,Williams Field,30.04299927,-81.88089752,88,NA,US,US-FL,Middleburg,no,11FL,,11FL,,,
7708,11G,small_airport,Johnson Field,42.92110062,-82.58550262,630,NA,US,US-MI,Smiths Creek,no,11G,,11G,,,
7709,11GA,heliport,De Kalb General Hospital Heliport,33.78969955,-84.28220367,1012,NA,US,US-GA,Decatur,no,11GA,,11GA,,,
7710,11GE,heliport,Apple 1 Heliport,34.26029968,-84.06639862,1273,NA,US,US-GA,Cumming,no,11GE,,11GE,,,
7711,11ID,small_airport,Riddle Airport,42.1855011,-116.112999,5356,NA,US,US-ID,Riddle,no,11ID,,11ID,,,
7712,11II,small_airport,Atterbury Field (Camp Atterbury),39.34170151,-86.03050232,710,NA,US,US-IN,Nineveh,no,11II,,11II,,,
7713,11IL,heliport,St Mary's Hospital - Kankakee Heliport,41.12200165,-87.87229919,610,NA,US,US-IL,Kankakee,no,11IL,,11IL,,,
7714,11IN,small_airport,Jr's Airport,39.81890106,-86.5381012,950,NA,US,US-IN,Danville,no,11IN,,11IN,,,
7715,11IS,heliport,St Anthony Memorial Hospital Heliport,39.125,-88.55059814,593,NA,US,US-IL,Effingham,no,11IS,,11IS,,,
7716,11KS,small_airport,Sheller's Airport,39.11669922,-95.14890289,1090,NA,US,US-KS,Tonganoxie,no,11KS,,11KS,,,
7717,11KY,heliport,Southwest Hospital Heliport,38.11589813,-85.83609772,500,NA,US,US-KY,Louisville,no,11KY,,11KY,,,
7718,11LA,seaplane_base,Tiger Pass Seaplane Base,29.25880051,-89.35299683,,NA,US,US-LA,Venice,no,11LA,,11LA,,,
7719,11LL,small_airport,Thacker Airport,40.72309875,-88.76309967,720,NA,US,US-IL,Chenoa,no,11LL,,11LL,,,
7720,11LS,small_airport,Jasmine Hill Airport,30.97599983,-92.56900024,120,NA,US,US-LA,Glenmora,no,11LS,,11LS,,,
7721,11M,small_airport,Fulton-Itawamba County Airport,34.35200119,-88.37729645,450,NA,US,US-MS,Fulton,no,11M,,11M,,,
7722,11MA,small_airport,Bulljump Airport,41.80730057,-70.75839996,60,NA,US,US-MA,Wareham,no,11MA,,11MA,,,
7723,11MD,small_airport,Tim's Airport,38.43330002,-75.62779999,42,NA,US,US-MD,Salisbury,no,11MD,,11MD,,,
7724,11MI,heliport,Wagner's Landing Heliport,42.73839951,-83.43740082,975,NA,US,US-MI,Clarkston,no,11MI,,11MI,,,
7725,11MN,seaplane_base,Sixberry's Landing Seaplane Base,47.67770004,-93.04820251,1372,NA,US,US-MN,Chisholm,no,11MN,,11MN,,,
7726,11MO,small_airport,Redgate Ranch Airport,38.90169907,-91.6352005,820,NA,US,US-MO,Williamsburg,no,11MO,,11MO,,,
7727,11N,small_airport,Candlelight Farms Airport,41.56679916,-73.46620178,675,NA,US,US-CT,New Milford,no,11N,,11N,,,
7728,11NC,heliport,Sprint/Midatlantic Telecom Heliport,36.02149963,-78.51889801,427,NA,US,US-NC,Youngsville,no,11NC,,11NC,,,
7729,11NE,small_airport,Kaan Airport,42.44250107,-103.9160004,4650,NA,US,US-NE,Harrison,no,11NE,,11NE,,,
7730,11NJ,heliport,Southdown Heliport,40.64070129,-74.66419983,128,NA,US,US-NJ,Pluckemin,no,11NJ,,11NJ,,,
7731,11NK,small_airport,Hop House Airpark,42.91389847,-74.61170197,530,NA,US,US-NY,Fort Plain,no,11NK,,11NK,,,
7732,11NY,small_airport,Saikkonen Airport,42.20899963,-76.4496994,969,NA,US,US-NY,Spencer,no,11NY,,11NY,,,
7733,11OA,small_airport,Hide-A-Way Hills Resort Airport,39.64310074,-82.46679688,780,NA,US,US-OH,Bremen,no,11OA,,11OA,,,
7734,11OG,small_airport,Unity Airport,44.45130157,-118.1869965,3975,NA,US,US-OR,Unity,no,11OG,,11OG,,,
310052,11OH,heliport,Fayette County Memorial Hospital Heliport,39.5477528,-83.4279139,977,NA,US,US-OH,Washington Court House,no,11OH,,11OH,,,
7735,11OK,small_airport,Beefor Ranch Airport,35.07229996,-97.38359833,1150,NA,US,US-OK,Purcell,no,11OK,,11OK,,,
7736,11OR,small_airport,Holiday Sky Ranch Airport,43.39350128,-123.2850037,510,NA,US,US-OR,Sutherlin,no,11OR,,11OR,,,
7737,11PA,heliport,Sherrie John Manor Heliport,40.26259995,-77.04579926,400,NA,US,US-PA,Mechanicsburg,no,11PA,,11PA,,,
45744,11PN,small_airport,Eakin Airport,41.3525,-79.732778,1489,NA,US,US-PA,Cranberry,no,11PN,,11PN,,,
7738,11S,small_airport,Sekiu Airport,48.26610184,-124.314003,355,NA,US,US-WA,Sekiu,no,11S,,11S,,,
7739,11TA,heliport,Conoco Heliport,29.7894001,-95.61109924,91,NA,US,US-TX,Houston,no,11TA,,11TA,,,
7740,11TE,small_airport,Flying M Ranch Airport,32.30009842,-97.20449829,700,NA,US,US-TX,Grandview,no,11TE,,11TE,,,
7741,11TN,small_airport,Salem Field,36.47499847,-87.36669922,425,NA,US,US-TN,Clarksville,no,11TN,,11TN,,,
7742,11TS,small_airport,Pt Enterprise D&W Ranch Airport,31.65789986,-96.41139984,526,NA,US,US-TX,Mexia,no,11TS,,11TS,,,
7743,11TX,small_airport,Butler Airport,33.66680145,-96.69059753,840,NA,US,US-TX,Sherman,no,11TX,,11TX,,,
7744,11VA,heliport,Chesapeake General Hospital Heliport,36.7417984,-76.24410248,21,NA,US,US-VA,Chesapeake,no,11VA,,11VA,,,
7745,11VG,small_airport,Devil's Reach Landing Airport,38.20940018,-77.00060272,28,NA,US,US-VA,Oak Grove,no,11VG,,11VG,,,
7746,11WA,small_airport,Homeport Airport,47.5237999,-117.4700012,2320,NA,US,US-WA,Spokane,no,11WA,,11WA,,,
7747,11WI,heliport,Victory Memorial Hospital Heliport,44.9632988,-90.93379974,1140,NA,US,US-WI,Stanley,no,11WI,,11WI,,,
7748,11WN,seaplane_base,Diedrich Seaplane Base,43.35419846,-89.57119751,774,NA,US,US-WI,Lodi,no,11WN,,11WN,,,
45923,11Y,small_airport,Flying Feathers Airport,44.061183,-88.194933,940,NA,US,US-WI,Chilton,no,11Y,,11Y,,,
7750,12A,small_airport,Arkavalley Airport,35.17839813,-92.33540344,329,NA,US,US-AR,Conway,no,12A,,12A,,,Formerly 12AR
7749,12AL,heliport,Goldberg Stagefield Army Heliport,31.41399956,-85.45980072,362,NA,US,US-AL,Fort Rucker/Kirklands Crossroads,no,12AL,,12AL,,,
45301,12AR,small_airport,Gibbons Airport,34.515444,-90.973722,178,NA,US,US-AR,Marvell,no,12AR,,12AR,,,
7751,12AZ,small_airport,Ranta Strip,33.85390091,-112.6529999,1840,NA,US,US-AZ,Morristown,no,12AZ,,12AZ,,,
7752,12CA,small_airport,Faber Vineyards Airport,38.10960007,-121.1689987,70,NA,US,US-CA,Lodi,no,12CA,,12CA,,,
7753,12CL,small_airport,Newton Field,36.1568985,-119.8499985,194,NA,US,US-CA,Stratford,no,12CL,,12CL,,,
7754,12CO,small_airport,Omega 1 STOLport,38.83549881,-107.8150024,6409,NA,US,US-CO,Hotchkiss,no,12CO,,12CO,,,
7755,12FA,small_airport,Hi-Acres Airport,28.47859955,-81.71450043,105,NA,US,US-FL,Clermont,no,12FA,,12FA,,,
7756,12FD,heliport,Osceola Regional Hospital Heliport,28.29859924,-81.4108963,59,NA,US,US-FL,Kissimmee,no,12FD,,12FD,,,
7757,12FL,seaplane_base,Timberlachen Seaplane Base,28.59280014,-81.40390015,89,NA,US,US-FL,Orlando,no,12FL,,12FL,,,
7758,12GA,heliport,Gwinnett Community Hospital D/B/A Eastside Medical Center Heliport,33.875,-84.02059937,1065,NA,US,US-GA,Snellville,no,12GA,,12GA,,,
7759,12GE,seaplane_base,Harvest Lake Seaplane Base,31.73080063,-81.35970306,4,NA,US,US-GA,Riceboro,no,12GE,,12GE,,,
7760,12I,seaplane_base,Brookville Reservoir Seaplane Base,39.51029968,-85,748,NA,US,US-IN,Brookville,no,12I,,12I,,,
7761,12IA,small_airport,Plueger Airfield,42.80049896,-96.13780212,1245,NA,US,US-IA,Lemars,no,12IA,,12IA,,,
7762,12ID,small_airport,Flying B Ranch Landing Strip,44.9679985,-114.7330017,3647,NA,US,US-ID,Salmon,no,12ID,,12ID,,,
7763,12II,small_airport,Pentecost Airport,39.85620117,-84.97219849,1020,NA,US,US-IN,Centerville,no,12II,,12II,,,
7764,12IL,small_airport,Hawker Airport,41.20000076,-88.01670074,620,NA,US,US-IL,Kankakee,no,12IL,,12IL,,,
7765,12IN,small_airport,J & S Field,38.11859894,-87.64749908,465,NA,US,US-IN,Darmstadt,no,12IN,,12IN,,,
7766,12IS,heliport,Mercer County Hospital Heliport,41.20589828,-90.75990295,729,NA,US,US-IL,Aledo,no,12IS,,12IS,,,
7767,12JY,balloonport,Clinton Elks Lodge Balloonport,40.60419846,-74.92079926,37,NA,US,US-NJ,Pittstown,no,12JY,,12JY,,,
7768,12KS,small_airport,Sooter Airport,37.93529892,-97.4878006,1420,NA,US,US-KS,Sedgwick,no,12KS,,12KS,,,
7769,12KY,small_airport,John M. Foree Airport,38.46030045,-85.16860199,853,NA,US,US-KY,New Castle,no,12KY,,12KY,,,
7770,12LA,small_airport,Kml Airport,30.27589989,-93.35739899,20,NA,US,US-LA,Sulphur,no,12LA,,12LA,,,
7771,12LL,small_airport,Lambdins Field,37.54029846,-89.48619843,350,NA,US,US-IL,Wolf Lake,no,12LL,,12LL,,,
7772,12LS,small_airport,Hains Airstrip,30.17860031,-92.28500366,20,NA,US,US-LA,Rayne,no,12LS,,12LS,,,
7773,12MA,heliport,Mellen Street Heliport,42.20709991,-71.44270325,275,NA,US,US-MA,Holliston,no,12MA,,12MA,,,
7774,12MD,heliport,St. Agnes Health Care Heliport,39.27080154,-76.67310333,141,NA,US,US-MD,Baltimore,no,12MD,,12MD,,,
7775,12ME,small_airport,Ridgeview Airport,44.32229996,-69.20729828,240,NA,US,US-ME,Searsmont,no,12ME,,12ME,,,
7776,12MI,small_airport,John's Airport,43.05170059,-83.49189758,820,NA,US,US-MI,Davison,no,12MI,,12MI,,,
7777,12MN,seaplane_base,Eastman Seaplane Base,46.48049927,-94.28109741,1200,NA,US,US-MN,Lake Hubert,no,12MN,,12MN,,,
7778,12MO,small_airport,Ferguson Farms Airport,38.58060074,-93.59470367,990,NA,US,US-MO,Windsor,no,12MO,,12MO,,,
7779,12MS,small_airport,Green Acres Airport,31.09309959,-91.31900024,300,NA,US,US-MS,Woodville,no,12MS,,12MS,,,
7780,12MT,small_airport,Lincolns Field,48.77420044,-110.4420013,2931,NA,US,US-MT,Hingham,no,12MT,,12MT,,,
7781,12NC,small_airport,Atlantic Field Mcolf Airport,34.88330078,-76.34999847,20,NA,US,US-NC,Atlantic,no,12NC,,12NC,,,
7782,12ND,small_airport,Pietschtree Airstrip,48.29529953,-101.427002,1566,NA,US,US-ND,Burlington,no,12ND,,12ND,,,
7783,12NE,small_airport,Reisig Brothers Airport,41.90660095,-103.6999969,3985,NA,US,US-NE,Scottsbluff,no,12NE,,12NE,,,
45523,12NH,small_airport,Gile Pond Airport,43.495278,-71.654444,485,NA,US,US-NH,Sanbornton,no,12NH,,12NH,,,
7784,12NJ,heliport,Penske 2 Heliport,40.88399887,-74.0684967,62,NA,US,US-NJ,Lodi,no,12NJ,,12NJ,,,
7785,12NK,small_airport,Westport Airport,44.15840149,-73.43289948,276,NA,US,US-NY,Westport,no,12NK,,12NK,,,
7786,12NM,small_airport,Columbus Stockyards Airport,31.79179955,-107.6380005,4017,NA,US,US-NM,Columbus,no,12NM,,12NM,,,
7787,12NY,heliport,Tgp-245 Heliport,42.87340164,-75.17099762,1440,NA,US,US-NY,West Winfield,no,12NY,,12NY,,,
45951,12OA,heliport,Defiance Regional Medical Center Heliport,41.298,-84.377667,709,NA,US,US-OH,Defiance,no,12OA,,12OA,,,
7788,12OH,small_airport,Mcgregor Airfield,39.83480072,-84.33470154,940,NA,US,US-OH,Brookville,no,12OH,,12OH,,,
7789,12OK,small_airport,Expressway Airpark,35.54130173,-97.45310211,1070,NA,US,US-OK,Oklahoma City,no,12OK,,12OK,,,
7790,12OR,small_airport,Skinner Ranch Airport,42.95130157,-117.2819977,4273,NA,US,US-OR,Jordan Valley,no,12OR,,12OR,,,
7791,12PA,heliport,Helicopter Applicators Inc Heliport,39.8495,-77.184167,612,NA,US,US-PA,Gettysburg,yes,12PA,,12PA,,,
7792,12PN,heliport,Wcau Heliport,40.00730133,-75.21549988,230,NA,US,US-PA,Philadelphia,no,12PN,,12PN,,,
7793,12PR,heliport,Villamil-304 Ponce De Leon Heliport,18.42259979,-66.05699921,148,NA,PR,PR-U-A,San Juan,no,12PR,,12PR,,,
7794,12PS,heliport,Siple Heliport,39.72380066,-75.88140106,419,NA,US,US-PA,Lewisville,no,12PS,,12PS,,,
7795,12S,small_airport,Monument Municipal Airport,44.83179855,-119.4300003,2323,NA,US,US-OR,Monument,no,12S,,12S,,http://en.wikipedia.org/wiki/Monument_Municipal_Airport,
7796,12SC,small_airport,Over the Hill Airport,34.14139938,-80.74669647,250,NA,US,US-SC,Elgin,no,12SC,,12SC,,,
7797,12T,heliport,Ferris Red Oak Municipal Heliport,32.52920151,-96.72789764,510,NA,US,US-TX,Ferris/Red Oak,no,12T,,12T,,,
7798,12TA,heliport,Channel Two Heliport,29.69020081,-95.52770233,72,NA,US,US-TX,Houston,no,12TA,,12TA,,,
7799,12TE,small_airport,Curtis Ranch Field,31.31679916,-99.23370361,1740,NA,US,US-TX,Brady,no,12TE,,12TE,,,
7800,12TN,small_airport,Riley Creek Airport,35.82369995,-84.5388031,750,NA,US,US-TN,Kingston,no,12TN,,12TN,,,
7801,12TS,small_airport,Blo Airport,32.90850067,-97.97730255,1050,NA,US,US-TX,Mineral Wells,no,12TS,,12TS,,,
7802,12TX,small_airport,Griffin Airport,30.82139969,-98.08059692,1235,NA,US,US-TX,Bertram,no,12TX,,12TX,,,
7803,12VA,small_airport,Hop-Along Airport,37.7881012,-79.76779938,1060,NA,US,US-VA,Clifton Forge,no,12VA,,12VA,,,
7804,12WA,small_airport,Fowlers Nw 40 Airport,47.52069855,-117.4629974,2313,NA,US,US-WA,Spokane,no,12WA,,12WA,,,
7805,12WI,heliport,Memorial Hospital of Taylor County Heliport,45.13589859,-90.35630035,1435,NA,US,US-WI,Medford,no,12WI,,12WI,,,
45905,12WT,small_airport,Walker Airport,46.911,-117.218667,2450,NA,US,US-WA,Palouse,no,12WT,,12WT,,,
45934,12WY,small_airport,Black Diamond Airport,44.45,-108.384667,4400,NA,US,US-WY,Burlington,no,12WY,,12WY,,,
7806,12XS,small_airport,Mc Croskey Field,34.95470047,-91.83719635,253,NA,US,US-AR,Butlerville,no,12XS,,12XS,,,
7807,13AK,small_airport,Satterbergs Airport,61.65470123,-149.8999939,350,NA,US,US-AK,Houston,no,13AK,,13AK,,,
7808,13AL,heliport,Hatch Stagefield Army Heliport,31.35899925,-85.62049866,225,NA,US,US-AL,Fort Rucker/Ozark,no,13AL,,13AL,,,
7809,13AR,heliport,Jrmc Heliport,34.18759918,-92.01789856,227,NA,US,US-AR,Pine Bluff,no,13AR,,13AR,,,
7810,13AZ,small_airport,Waltenberry Field Ultralightport,33.535,-112.8534722,1213,NA,US,US-AZ,Tonopah,no,13AZ,,13AZ,,,
7811,13CA,heliport,M H 15 Heaps Peak US Forest Service Heliport,34.23529816,-117.1549988,6266,NA,US,US-CA,Lake Arrowhead,no,13CA,,13CA,,,
7812,13CL,small_airport,Maine Prairie Airport,38.38130188,-121.8239975,40,NA,US,US-CA,Dixon,no,13CL,,13CL,,,
7813,13CO,heliport,Mann Heliport,40.55559921,-106.8440018,7500,NA,US,US-CO,Steamboat Springs,no,13CO,,13CO,,,
22103,13D,heliport,Ponderosa Heliport,42.62912003,-83.68306518,1017,NA,US,US-MI,Highland,no,13D,,13D,,,Formerly MI96
7814,13FA,small_airport,Earle Airpark,29.69440079,-81.51370239,25,NA,US,US-FL,Hastings,no,13FA,,13FA,,,
7815,13FD,heliport,Yelvington Heliport,28.51860046,-81.38310242,110,NA,US,US-FL,Orlando,no,13FD,,13FD,,,
7816,13FL,heliport,Gator Lake Heliport,28.27669907,-82.32060242,110,NA,US,US-FL,Zephyrhills,no,13FL,,13FL,,,
7817,13GA,small_airport,Oak Ridge Plantation Airport,31.36660004,-83.75489807,350,NA,US,US-GA,Sylvester,no,13GA,,13GA,,,
7818,13GE,small_airport,Holt Airpark,32.3608017,-82.31809998,280,NA,US,US-GA,Oak Park,no,13GE,,13GE,,,
7819,13IA,small_airport,Hillside Stables Airport,42.04570007,-90.19110107,760,NA,US,US-IA,Sabula,no,13IA,,13IA,,,
7820,13ID,small_airport,Silva Ranch Airport,44.26660156,-115.0009995,6400,NA,US,US-ID,Stanley,no,13ID,,13ID,,,
7821,13II,heliport,St Joseph Medical Center Heliport,41.07870102,-85.14969635,845,NA,US,US-IN,Fort Wayne,no,13II,,13II,,,
7822,13IN,small_airport,Gage Airport,40.81529999,-84.92769623,814,NA,US,US-IN,Decatur,no,13IN,,13IN,,,
7823,13JY,heliport,Hess Port Reading Heliport,40.64440155,-74.24530029,70,NA,US,US-NJ,Port Reading,no,13JY,,13JY,,,
7824,13KS,small_airport,Daniel's Landing Airport,37.69779968,-97.11029816,1325,NA,US,US-KS,Andover,no,13KS,,13KS,,,
7825,13KY,small_airport,Miles Airport,37.70560074,-87.15609741,407,NA,US,US-KY,Owensboro,no,13KY,,13KY,,,
7826,13LA,heliport,Evergreen Heliport,29.78359985,-93.20850372,10,NA,US,US-LA,Cameron,no,13LA,,13LA,,,
7827,13LL,heliport,Henry Valve Company Heliport,41.90888904,-87.87408248,640,NA,US,US-IL,Melrose Park,no,13LL,,13LL,,,
7828,13LS,small_airport,Tee Brad's Airport,29.9939003,-92.38559723,12,NA,US,US-LA,Kaplan,no,13LS,,13LS,,,
7829,13M,balloonport,Aeronut Park Balloonport,42.60419846,-83.8585968,980,NA,US,US-MI,Howell,no,13M,,13M,,,
7830,13MA,small_airport,Metropolitan Airport,42.22330093,-72.31140137,418,NA,US,US-MA,Palmer,no,13MA,PMX,13MA,,http://en.wikipedia.org/wiki/Metropolitan_Airport,
7831,13ME,small_airport,Socatean Bay Airport,45.77640152,-69.80930328,1179,NA,US,US-ME,Rockwood,no,13ME,,13ME,,,
7832,13MI,heliport,Lee Memorial Hospital Heliport,41.9836998,-86.11579895,748,NA,US,US-MI,Dowagiac,no,13MI,,13MI,,,
7833,13MN,small_airport,Melby Airport,46.10079956,-95.83139801,1250,NA,US,US-MN,Ashby,no,13MN,,13MN,,,
7834,13MO,small_airport,Domeyer Airport,37.67639923,-91.70649719,1260,NA,US,US-MO,Lenox,no,13MO,,13MO,,,
7835,13MS,small_airport,Greener Pastures Airpark,30.63330078,-89.66390228,180,NA,US,US-MS,Carriere,no,13MS,,13MS,,,
7836,13MT,small_airport,Sorenson Airport,48.52080154,-110.112999,2873,NA,US,US-MT,Kremlin,no,13MT,,13MT,,,
7837,13N,small_airport,Trinca Airport,40.96680069,-74.78019714,600,NA,US,US-NJ,Andover,no,13N,,13N,,,
7838,13NC,small_airport,Oak Grove Mcolf Airport,35.03350067,-77.24970245,27,NA,US,US-NC,Pollocksville,no,13NC,,13NC,,,
7839,13NE,small_airport,Hock Airport,40.31669998,-100.8089981,2777,NA,US,US-NE,Culbertson,no,13NE,,13NE,,,
7840,13NJ,heliport,Wyeth-Ayerst Research Heliport,40.36510086,-74.582901,117,NA,US,US-NJ,Princeton,no,13NJ,,13NJ,,,
7841,13NK,heliport,Quaker Valley Farm Heliport,41.59749985,-73.53150177,1100,NA,US,US-NY,Pawling,no,13NK,,13NK,,,
7842,13NM,small_airport,Beaverhead Airstrip,33.41949844,-108.1389999,7378,NA,US,US-NM,Silver City,no,13NM,,13NM,,,
7843,13NY,heliport,Health Sciences Center University Hospital Heliport,40.9076004,-73.11620331,190,NA,US,US-NY,Stony Brook,no,13NY,,13NY,,,
7844,13OH,small_airport,Rose Field,41.33029938,-84.2983017,728,NA,US,US-OH,Jewell,no,13OH,,13OH,,,
7845,13OI,heliport,Union Hospital Heliport,40.51509857,-81.45480347,926,NA,US,US-OH,Dover,no,13OI,,13OI,,,
7846,13OK,heliport,Mc Alester Regional Hospital Heliport,34.93619919,-95.74890137,705,NA,US,US-OK,Mc Alester,no,13OK,,13OK,,,
7847,13OR,small_airport,Aubrey Mountain Airstrip,43.74069977,-122.4260025,1680,NA,US,US-OR,Oakridge,no,13OR,,13OR,,,
7848,13PA,small_airport,Rigrtona Airport,41.68259811,-79.45200348,1703,NA,US,US-PA,Tidioute,no,13PA,,13PA,,,
7849,13PN,small_airport,Richland Acres Ultralightport,40.45429993,-75.30460358,550,NA,US,US-PA,Quakertown,no,13PN,,13PN,,,
7850,13PS,heliport,St. Luke's/Pennstar Flight Center Heliport,40.73920059,-75.33390045,488,NA,US,US-PA,Nazareth,no,13PS,,13PS,,,
7851,13Q,small_airport,Jewett Mesa Airport,34.0033989,-108.6780014,7681,NA,US,US-NM,Apache Creek,no,13Q,,13Q,,,
7852,13S,seaplane_base,Lake Louise Seaplane Base,62.28290176,-146.5189972,2362,NA,US,US-AK,Lake Louise,no,13S,,13S,,,
7853,13SC,heliport,Grassy Pond Heliport,35.1391983,-81.6964035,840,NA,US,US-SC,Gaffney,no,13SC,,13SC,,,
7854,13TA,heliport,Kbmt-Tv Heliport,30.07329941,-94.13379669,32,NA,US,US-TX,Beaumont,no,13TA,,13TA,,,
7855,13TE,small_airport,Varisco Airport,30.65600014,-96.53829956,240,NA,US,US-TX,Bryan,no,13TE,,13TE,,,
7856,13TN,heliport,Bear Mountain Heliport,35.59830093,-84.26750183,930,NA,US,US-TN,Vonore,no,13TN,,13TN,,,
7857,13TS,small_airport,Van Es Ranch Airport,27.45529938,-98.92639923,830,NA,US,US-TX,Oilton,no,13TS,,13TS,,,
7858,13TX,small_airport,Allison Ranch Airport,30.53129959,-100.4509964,2350,NA,US,US-TX,Sonora,no,13TX,,13TX,,,
7859,13VA,heliport,7th Division State Police Headquarters Heliport,38.82509995,-77.28410339,395,NA,US,US-VA,Fairfax,no,13VA,,13VA,,,
7860,13VG,heliport,May Heliport,37.30789948,-80.10009766,1430,NA,US,US-VA,Salem,no,13VG,,13VG,,,
7861,13W,small_airport,Camano Island Airfield,48.25699997,-122.4369965,145,NA,US,US-WA,Stanwood,no,13W,,13W,,,
7862,13WA,heliport,Fsa - Everett Heliport,47.93650055,-122.25,500,NA,US,US-WA,Everett,no,13WA,,13WA,,,
7863,13WI,small_airport,Nowatzski Field,43.69639969,-88.99960327,920,NA,US,US-WI,Markesan,no,13WI,,13WI,,,
7864,13XS,heliport,Presbyterian Hospital Of Rockwall Heliport,32.884444,-96.464444,532,NA,US,US-TX,Rockwall,no,13XS,,13XS,,,
7865,13Y,small_airport,Littlefork Muni/Hanover Airport,48.41659927,-93.58630371,1145,NA,US,US-MN,Littlefork,no,13Y,,13Y,,,
7866,13Z,seaplane_base,Loring Seaplane Base,55.60129929,-131.6369934,0,NA,US,US-AK,Loring,no,13Z,WLR,13Z,,,
7867,14AK,small_airport,Four Corners Airport,61.60150146,-149.2480011,300,NA,US,US-AK,Palmer,no,14AK,,14AK,,,
7868,14AL,heliport,Highbluff Stagefield Army Heliport,31.1534996,-85.73370361,270,NA,US,US-AL,Fort Rucker/Hartford,no,14AL,,14AL,,,
7869,14AR,small_airport,Rice-Bell Field Airport,35.05279922,-90.67500305,221,NA,US,US-AR,Forrest City,no,14AR,,14AR,,,
7870,14AZ,small_airport,Ruby Star Airpark,31.9083004,-111.1220016,4025,NA,US,US-AZ,Green Valley,no,14AZ,,14AZ,,,
7871,14CA,heliport,Hoag Memorial Hospital Heliport,33.625182,-117.930799,94,NA,US,US-CA,Newport Beach,no,14CA,,14CA,,,
7872,14CL,heliport,Foothill Presbyterian Hospital Heliport,34.133487,-117.870677,730,NA,US,US-CA,Glendora,no,14CL,,14CL,,,
7873,14CO,small_airport,Good Pasture Airport,38.09719849,-104.9100037,6000,NA,US,US-CO,Beulah,no,14CO,,14CO,,,
7874,14CT,heliport,Mptn Heliport,41.48469925,-71.97290039,124,NA,US,US-CT,Mashantucket,no,14CT,,14CT,,,
7875,14FA,small_airport,Burrs Strip,25.57010078,-80.39980316,10,NA,US,US-FL,Miami,no,14FA,,14FA,,,
7876,14FD,small_airport,Sunshine Farms Airport,29.94910049,-81.49040222,23,NA,US,US-FL,St Augustine,no,14FD,,14FD,,,
7877,14FL,small_airport,Wells Flying Service Airport,30.8654995,-87.17769623,240,NA,US,US-FL,Jay,no,14FL,,14FL,,,
7878,14GA,heliport,Latham Creek Heliport,34.33649826,-83.9434967,1120,NA,US,US-GA,Gainesville,no,14GA,,14GA,,,
7879,14GE,heliport,Stakely Heliport,34.78549957,-85.4536972,1940,NA,US,US-GA,Trenton,no,14GE,,14GE,,,
7880,14I,small_airport,Bloom Airport,39.63339996,-83.74990082,1050,NA,US,US-OH,Jamestown,no,14I,,14I,,,
7881,14ID,small_airport,Peaceful Cove Airport,43.68099976,-116.2030029,2920,NA,US,US-ID,Boise,no,14ID,,14ID,,,
7882,14IL,heliport,Kewanee Hospital Heliport,41.23529816,-89.93090057,838,NA,US,US-IL,Kewanee,no,,,0IL5,,,
7883,14IN,small_airport,De Motte Airport,41.20700073,-87.21250153,655,NA,US,US-IN,De Motte,no,14IN,,14IN,,,
7884,14IS,heliport,Marshall Browning Hospital Heliport,38.02560043,-89.23590088,454,NA,US,US-IL,Du Quoin,no,14IS,,14IS,,,
7885,14KS,small_airport,G & S Space Port Airport,38.26919937,-94.90480042,940,NA,US,US-KS,Parker,no,14KS,,14KS,,,
7886,14KY,small_airport,Blue Haven Farm Airport,38.17369843,-84.36830139,985,NA,US,US-KY,Paris,no,14KY,,14KY,,,
7887,14L,heliport,Devonshire Area Heliport,34.25690079,-118.5309982,1012,NA,US,US-CA,Los Angeles,no,14L,,14L,,,
7888,14LA,small_airport,Killarny Farm Airport,30.8409996,-91.5082016,53,NA,US,US-LA,St Francisville,no,14LA,,14LA,,,
7889,14LL,heliport,Gottlieb Heliport,41.91138164,-87.84361929,688,NA,US,US-IL,Melrose Park,no,14LL,,14LL,,,
7890,14LS,heliport,Go Gulf Heliport,30.47330093,-91.04769897,50,NA,US,US-LA,Baton Rouge,no,14LS,,14LS,,,
7891,14MA,heliport,Vergnani Heliport,42.04980087,-72.64929962,180,NA,US,US-MA,Agawam,no,14MA,,14MA,,,
10266,14ME,small_airport,Ring Hill Airport,44.79259872,-69.07029724,340,NA,US,US-ME,Carmel,no,14ME,,14ME,,,Formerly 38B
7892,14MI,small_airport,East-West Paris Airport,42.85089874,-85.56700134,750,NA,US,US-MI,Dutton,no,14MI,,14MI,,,
7893,14MN,heliport,Riverwood Healthcare Center Heliport,46.52920151,-93.69920349,1224,NA,US,US-MN,Aitkin,no,14MN,,14MN,,,
7894,14MO,small_airport,Stevinson Farm Airport,39.04999924,-94.31690216,900,NA,US,US-MO,Blue Springs,no,14MO,,14MO,,,
7895,14MS,small_airport,Rose Field,32.34529877,-89.03420258,400,NA,US,US-MS,Hickory,no,14MS,,14MS,,,
7896,14MT,small_airport,Holland Ranch Airport,47.05160141,-109.0749969,4050,NA,US,US-MT,Lewistown,no,14MT,,14MT,,,
7897,14N,small_airport,Beltzville Airport,40.84429932,-75.63549805,899,NA,US,US-PA,Lehighton,no,14N,,14N,,,
7898,14NC,small_airport,Camp Davis Mcolf Airport,34.51670074,-77.55000305,60,NA,US,US-NC,Holly Ridge,no,14NC,,14NC,,,
7899,14ND,small_airport,Hagen Private Airport,46.20780182,-102.9079971,2810,NA,US,US-ND,Reeder,no,14ND,,14ND,,,
7900,14NE,small_airport,Aaron's Field,40.86249924,-98.06420135,1825,NA,US,US-NE,Aurora,no,14NE,,14NE,,,
7901,14NH,heliport,Cheshire Medical Center Heliport,42.94889832,-72.28970337,481,NA,US,US-NH,Keene,no,14NH,,14NH,,,
7902,14NJ,heliport,Wuerkers New Acres Farm Heliport,39.00924694,-74.88795161,22,NA,US,US-NJ,Rio Grande,no,14NJ,,14NJ,,,
7903,14NK,small_airport,Mountain View Airport,43.34000015,-73.47899628,243,NA,US,US-NY,Kingsbury,no,14NK,,14NK,,,
7904,14NY,heliport,Windy's Heliport,40.7975502,-73.41790009,222,NA,US,US-NY,Melville,yes,14NY,,14NY,,,
7905,14OH,small_airport,Heilman Airport,40.66889954,-83.4434967,930,NA,US,US-OH,Kenton,no,14OH,,14OH,,,
7906,14OI,small_airport,Pleasant Home Gliding Club Gliderport,40.9192009,-82.11399841,1050,NA,US,US-OH,Pleasant Home,no,14OI,,14OI,,,
7907,14OK,small_airport,Reherman Airport,35.80419922,-97.93370056,1105,NA,US,US-OK,Kingfisher,no,14OK,,14OK,,,
7908,14OR,heliport,Air Columbia Heliport,45.71419907,-121.5179977,100,NA,US,US-OR,Hoodriver,no,14OR,,14OR,,,
7909,14P,small_airport,Boggs Field,38.82389832,-81.34940338,927,NA,US,US-WV,Spencer,no,14P,,14P,,,
7910,14PA,small_airport,Dimascio Field,40.29090118,-75.65910339,350,NA,US,US-PA,Pottstown,no,14PA,,14PA,,,
7911,14PS,small_airport,Hideaway Ultralightport,39.88439941,-76.11859894,630,NA,US,US-PA,Quarryville,no,14PS,,14PS,,,
7912,14S,small_airport,Westport Airport,46.89690018,-124.1009979,14,NA,US,US-WA,Westport,no,14S,,14S,,,
7913,14SN,heliport,Colmery-O'Neil Vamc Heliport,39.02640152,-95.72250366,950,NA,US,US-KS,Topeka,no,14SN,,14SN,,,
7914,14TA,small_airport,Dean Ranch Airport,29.89859962,-98.40309906,1180,NA,US,US-TX,Startzville,no,14TA,,14TA,,,
7915,14TE,small_airport,Smith I-Ranch Airport,30.91679955,-99.48370361,1793,NA,US,US-TX,Hext,no,14TE,,14TE,,,
7916,14TN,heliport,News Channel 3 Heliport,35.12639999,-90.0714035,300,NA,US,US-TN,Memphis,no,14TN,,14TN,,,
7917,14TS,small_airport,O S Wyatt Airport,27.42169952,-98.60449982,532,NA,US,US-TX,Realitos,no,14TS,,14TS,,,
7918,14TX,small_airport,Keyes Ranch Airport,30.2894001,-98.17389679,1150,NA,US,US-TX,Dripping Springs,no,14TX,,14TX,,,
7919,14VA,small_airport,Krens Farm Airport,39.22900009,-77.74669647,790,NA,US,US-VA,Hillsboro,no,14VA,,14VA,,,
7920,14WA,small_airport,Lz Ranch Airport,46.97069931,-122.7369995,240,NA,US,US-WA,Olympia,no,14WA,,14WA,,,
7921,14WI,heliport,Cylon Heliport,45.136944,-92.376667,1071,NA,US,US-WI,New Richmond,no,14WI,,14WI,,,
7922,14WS,small_airport,Lakewood Lodge Airport,45.77799988,-91.5585022,1365,NA,US,US-WI,Stone Lake,no,14WS,,14WS,,,
7923,14WV,heliport,Snowshoe Resort/Topof the World Heliport,38.40060043,-79.9957962,4792,NA,US,US-WV,Linwood,no,14WV,,14WV,,,
299705,14XA,small_airport,Sherman (Frog Pond) Airport,33.6578884,-96.78828478,686,NA,US,US-TX,Sherman,no,14XA,,,,,
7924,14XS,small_airport,Isbell Ranch Airport,30.80850029,-97.27390289,430,NA,US,US-TX,Davilla,no,14XS,,14XS,,,
7925,15A,small_airport,Mark Reynolds/North Mobile County Airport,30.91320038,-87.98059845,60,NA,US,US-AL,Creola,no,15A,,15A,,,
7926,15AK,small_airport,Golden North Airfield,63.37070084,-148.8500061,2250,NA,US,US-AK,Cantwell,no,15AK,,15AK,,,
7927,15AL,heliport,Highfalls Stagefield Army Heliport,31.09359932,-85.78790283,220,NA,US,US-AL,Fort Rucker/Hartford,no,15AL,,15AL,,,
7928,15AR,small_airport,Dawson's Airport,34.82590103,-90.54329681,220,NA,US,US-AR,Brickeys,no,15AR,,15AR,,,
7929,15AZ,small_airport,Quail Mesa Ranch Airport,33.74449921,-114.4769974,290,NA,US,US-AZ,Quartzsite,no,15AZ,,15AZ,,,
7930,15CA,heliport,Stanford University Hospital Center Heliport,37.4355011,-122.1750031,84,NA,US,US-CA,Palo Alto,no,15CA,,15CA,,,
7931,15CL,small_airport,Hunt Farms Airport,37.34270096,-120.4039993,223,NA,US,US-CA,Merced,no,15CL,,15CL,,,
7932,15CO,heliport,Swedish Medical Center Heliport,39.65470123,-104.9710007,5374,NA,US,US-CO,Englewood,no,15CO,,15CO,,,
7933,15FD,small_airport,Orange Hill Airport,30.65850067,-85.5298996,260,NA,US,US-FL,Wausau,no,15FD,,15FD,,,
7934,15FL,small_airport,Cannon Creek Airpark,30.15369987,-82.66639709,125,NA,US,US-FL,Lake City,no,15FL,,15FL,,,
7935,15G,small_airport,Weltzien Skypark Airport,41.02840042,-81.79850006,1210,NA,US,US-OH,Wadsworth,no,15G,,15G,,,
7936,15GA,small_airport,Darla's Airport,32.68019867,-82.47899628,328,NA,US,US-GA,Kite,no,15GA,,15GA,,,
310040,15IA,small_airport,Bellvue Flying Circus Airport,42.2353944,-90.4067667,625,NA,US,US-IA,Bellvue,no,15IA,,15IA,,,
7937,15ID,small_airport,Scanlon Airport,47.68560028,-117.038002,2000,NA,US,US-ID,Coeur D Alene,no,15ID,,15ID,,,
7938,15II,heliport,Findlay Heliport,40.33890152,-86.94080353,670,NA,US,US-IN,Lafayette,no,15II,,15II,,,
7939,15IL,small_airport,Gittleson Farms Airport,41.79729843,-89.27320099,836,NA,US,US-IL,Franklin Grove,no,15IL,,15IL,,,
7940,15IN,small_airport,Bugtown Airport,38.15060043,-87.84030151,464,NA,US,US-IN,New Harmony,no,15IN,,15IN,,,
7941,15KS,small_airport,Sickler Airstrip,38.43059921,-96.08830261,1200,NA,US,US-KS,Emporia,no,15KS,,15KS,,,
7942,15KY,small_airport,Brennan Farm Airport,38.1570015,-84.3015976,910,NA,US,US-KY,Paris,no,15KY,,15KY,,,
7943,15LA,heliport,Creole Heliport,29.79019928,-93.18409729,11,NA,US,US-LA,Oak Grove,no,15LA,,15LA,,,
7944,15LL,small_airport,Cloverleaf Ranch Airport,41.23749924,-89.53669739,807,NA,US,US-IL,Tiskilwa,no,15LL,,15LL,,,
7945,15LS,heliport,Port of Iberia Heliport,29.94470024,-91.83709717,7,NA,US,US-LA,New Iberia,no,15LS,,15LS,,,
7946,15MA,small_airport,Canapitsit Airport,41.42229843,-70.90950012,10,NA,US,US-MA,Gosnold,no,15MA,,15MA,,,
7947,15ME,small_airport,Eagle Field,43.81529999,-70.22920227,150,NA,US,US-ME,North Yarmouth,no,15ME,,15ME,,,
7948,15MI,heliport,Grant Pad Heliport,42.54449844,-82.93160248,638,NA,US,US-MI,Fraser,no,15MI,,15MI,,,
7949,15MN,small_airport,Tyler Farms Airport,45.2621994,-94.51069641,1185,NA,US,US-MN,Watkins,no,15MN,,15MN,,,
7950,15MO,small_airport,Applegate Airport,40.39199829,-92.56549835,997,NA,US,US-MO,Queen City,no,15MO,,15MO,,,
7951,15MT,small_airport,Saubak Airport,48.50040054,-105.9100037,2701,NA,US,US-MT,Lustre,no,15MT,,15MT,,,
7952,15N,small_airport,Jenkins Airport,39.11959839,-75.58380127,53,NA,US,US-DE,Wyoming,no,15N,,15N,,,
7953,15NC,small_airport,Dragonfly Field,36.23970032,-76.97389984,49,NA,US,US-NC,Ahoskie,no,15NC,,15NC,,,
7954,15NE,small_airport,Sindt Airport,40.29109955,-98.8234024,1990,NA,US,US-NE,Upland,no,15NE,,15NE,,,
7955,15NH,heliport,Hp Spit Brook Heliport,42.70830154,-71.45829773,235,NA,US,US-NH,Nashua,no,15NH,,15NH,,,
7956,15NJ,heliport,Werner Heliport,40.42509842,-74.09960175,7,NA,US,US-NJ,Belford,no,15NJ,,15NJ,,,
7957,15NK,small_airport,Knox Landing Airport,42.57640076,-78.55670166,1845,NA,US,US-NY,Sardinia,no,15NK,,15NK,,,
7958,15NY,heliport,Peninsula Hospital Center Heliport,40.59180069,-73.78009796,,NA,US,US-NY,Far Rockaway,no,15NY,,15NY,,,
7959,15OH,heliport,Twin City Hospital Heliport,40.40230179,-81.33709717,940,NA,US,US-OH,Dennison,no,15OH,,15OH,,,
7960,15OI,heliport,Firelands Community Hospital Nr 1 Heliport,41.43619919,-82.71099854,599,NA,US,US-OH,Sandusky,no,15OI,,15OI,,,
45714,15OK,small_airport,Bluebird Airport,35.703889,-95.310833,531,NA,US,US-OK,Muskogee,no,15OK,,15OK,,,
7961,15OR,heliport,Camp Rilea Heliport,46.11599644,-123.9313924,32,NA,US,US-OR,Warrenton,no,15OR,,15OR,,http://en.wikipedia.org/wiki/Camp_Rilea_Heliport,
7962,15PA,small_airport,Cavage Personal Use Airport,41.59429932,-75.35549927,1400,NA,US,US-PA,Prompton,no,15PA,,15PA,,,
7963,15PN,heliport,Metropolitan Edison Heliport,40.37509918,-75.93849945,280,NA,US,US-PA,Reading,no,15PN,,15PN,,,
7964,15PS,heliport,Jennersville Regional Hospital Heliport,39.82249832,-75.88860321,500,NA,US,US-PA,West Grove,no,15PS,,15PS,,,
7965,15S,small_airport,Lester State Ultralightport,47.21509933,-121.461998,1693,NA,US,US-WA,Lester,no,15S,,15S,,,
301243,15SD,heliport,Watertown / Brownlee Heliport,44.88326488,-97.10808992,1720,NA,US,US-SD,,no,15SD,,,,,
7966,15TA,small_airport,J R Ranch Airport,30.25440025,-99.9469986,1125,NA,US,US-TX,Briggs,no,15TA,,15TA,,,
7967,15TE,heliport,Arco High Island Heliport,29.61969948,-94.20709991,5,NA,US,US-TX,High Island,no,15TE,,15TE,,,
7968,15TN,heliport,Indian Path Medical Center Heliport,36.55160141,-82.51519775,1283,NA,US,US-TN,Kingsport,no,15TN,,15TN,,,
7969,15TS,heliport,Owens Country Sausage Heliport,32.98680115,-96.69750214,629,NA,US,US-TX,Richardson,no,15TS,,15TS,,,
7970,15TX,small_airport,Ed Shadle Airport,32.3042984,-98.32530212,1550,NA,US,US-TX,Stephenville,no,15TX,,15TX,,,
7971,15VA,small_airport,Fox Acres Airport,38.72230148,-77.89969635,450,NA,US,US-VA,Warrenton,no,15VA,,15VA,,,
